{"type":"FeatureCollection","source":"Comune di Milano, Nuclei d’Identità Locale (NIL) vigenti – PGT 2030, CC BY 4.0 (dati.comune.milano.it, ds964)","features":[{"type":"Feature","properties":{"id":1,"name":"Duomo"},"geometry":{"type":"Polygon","coordinates":[[[9.19482,45.47201],[9.19001,45.46744],[9.1894,45.46697],[9.18809,45.46561],[9.18678,45.4656],[9.18618,45.46521],[9.18275,45.46783],[9.18294,45.46799],[9.18246,45.46836],[9.18233,45.46846],[9.18212,45.46833],[9.18125,45.46903],[9.18154,45.46927],[9.18182,45.46979],[9.18185,45.47013],[9.18161,45.47083],[9.17958,45.47255],[9.17538,45.46981],[9.17785,45.46799],[9.17747,45.46743],[9.17675,45.46769],[9.17552,45.46575],[9.17364,45.46235],[9.17348,45.46189],[9.17326,45.46167],[9.17513,45.46035],[9.17755,45.4589],[9.17816,45.4591],[9.17821,45.45902],[9.17785,45.45878],[9.17816,45.45857],[9.18095,45.45736],[9.1843,45.45655],[9.1874,45.45603],[9.18792,45.45614],[9.191,45.45722],[9.1933,45.45748],[9.19971,45.46421],[9.20036,45.46543],[9.20046,45.46579],[9.20054,45.46701],[9.19953,45.46847],[9.19805,45.46993],[9.19513,45.47229],[9.19482,45.47201]]]}},{"type":"Feature","properties":{"id":2,"name":"Brera"},"geometry":{"type":"Polygon","coordinates":[[[9.19165,45.46906],[9.19513,45.47229],[9.195,45.4724],[9.19545,45.47283],[9.19843,45.47768],[9.1944,45.47949],[9.19212,45.47973],[9.19225,45.4803],[9.19099,45.48051],[9.19046,45.48069],[9.188,45.48081],[9.18698,45.48096],[9.18223,45.48215],[9.18183,45.48201],[9.18241,45.48125],[9.18123,45.47757],[9.18181,45.47389],[9.18143,45.47379],[9.17958,45.47255],[9.18161,45.47083],[9.18185,45.47013],[9.18182,45.46979],[9.18154,45.46927],[9.18125,45.46903],[9.18212,45.46833],[9.18233,45.46846],[9.18246,45.46836],[9.18294,45.46799],[9.18275,45.46783],[9.18618,45.46521],[9.18678,45.4656],[9.18809,45.46561],[9.1894,45.46697],[9.19001,45.46744],[9.19165,45.46906]]]}},{"type":"Feature","properties":{"id":3,"name":"Giardini Porta Venezia"},"geometry":{"type":"Polygon","coordinates":[[[9.2009,45.47654],[9.19843,45.47768],[9.19545,45.47283],[9.19956,45.47308],[9.20093,45.47259],[9.20245,45.47189],[9.20521,45.47458],[9.2009,45.47654]]]}},{"type":"Feature","properties":{"id":4,"name":"Guastalla"},"geometry":{"type":"Polygon","coordinates":[[[9.207,45.46787],[9.20643,45.47369],[9.20621,45.47408],[9.20521,45.47458],[9.20245,45.47189],[9.20093,45.47259],[9.19956,45.47308],[9.19545,45.47283],[9.195,45.4724],[9.19822,45.46977],[9.19953,45.46847],[9.20021,45.46758],[9.20054,45.46701],[9.20046,45.46579],[9.20036,45.46543],[9.19971,45.46421],[9.19339,45.45758],[9.20255,45.45196],[9.20587,45.45814],[9.20773,45.46053],[9.20722,45.46632],[9.207,45.46787]]]}},{"type":"Feature","properties":{"id":5,"name":"Porta Vigentina · Porta Lodovica"},"geometry":{"type":"Polygon","coordinates":[[[9.20186,45.45238],[9.19339,45.45758],[9.1933,45.45748],[9.191,45.45722],[9.18792,45.45614],[9.1874,45.45603],[9.18675,45.45235],[9.18584,45.44948],[9.18757,45.44578],[9.18773,45.44474],[9.18866,45.44491],[9.19068,45.44508],[9.19836,45.44526],[9.19652,45.45204],[9.20115,45.45196],[9.20186,45.45238]]]}},{"type":"Feature","properties":{"id":6,"name":"Porta Ticinese · Conca del Naviglio"},"geometry":{"type":"Polygon","coordinates":[[[9.1874,45.45603],[9.1843,45.45655],[9.18095,45.45736],[9.17785,45.45878],[9.17348,45.45583],[9.17587,45.45413],[9.17729,45.45293],[9.17868,45.45301],[9.17894,45.45236],[9.1781,45.45227],[9.17587,45.44287],[9.17892,45.44273],[9.17985,45.44274],[9.18129,45.44291],[9.18773,45.44474],[9.18757,45.44578],[9.18584,45.44948],[9.18675,45.45235],[9.1874,45.45603]]]}},{"type":"Feature","properties":{"id":7,"name":"Magenta · S. Vittore"},"geometry":{"type":"Polygon","coordinates":[[[9.17538,45.46981],[9.17474,45.47032],[9.17417,45.47098],[9.17367,45.47112],[9.17247,45.47197],[9.17221,45.47228],[9.1721,45.47266],[9.17116,45.47305],[9.16983,45.474],[9.16617,45.47163],[9.16641,45.47149],[9.16342,45.46129],[9.1638,45.4608],[9.17173,45.45558],[9.17273,45.45631],[9.17348,45.45583],[9.17821,45.45902],[9.17816,45.4591],[9.17755,45.4589],[9.17513,45.46035],[9.17326,45.46167],[9.17348,45.46189],[9.17364,45.46235],[9.17552,45.46575],[9.17675,45.46769],[9.17747,45.46743],[9.17785,45.46799],[9.17538,45.46981]]]}},{"type":"Feature","properties":{"id":8,"name":"Parco Sempione"},"geometry":{"type":"Polygon","coordinates":[[[9.17958,45.47255],[9.18143,45.47379],[9.18181,45.47389],[9.18123,45.47757],[9.17823,45.47705],[9.1771,45.47662],[9.17648,45.47615],[9.17501,45.47734],[9.17319,45.47616],[9.17246,45.47639],[9.17174,45.47619],[9.17139,45.47573],[9.17161,45.47516],[9.16983,45.474],[9.17116,45.47305],[9.1721,45.47266],[9.17221,45.47228],[9.17247,45.47197],[9.17367,45.47112],[9.17417,45.47098],[9.17474,45.47032],[9.17538,45.46981],[9.17958,45.47255]]]}},{"type":"Feature","properties":{"id":9,"name":"Porta Garibaldi · Porta Nuova"},"geometry":{"type":"Polygon","coordinates":[[[9.19871,45.48484],[9.19931,45.48634],[9.1958,45.48817],[9.19418,45.48601],[9.19395,45.48597],[9.19351,45.48535],[9.19244,45.48484],[9.19071,45.48453],[9.1892,45.48477],[9.18905,45.48531],[9.18833,45.4853],[9.18829,45.48557],[9.18722,45.48575],[9.18667,45.48596],[9.18516,45.48665],[9.18519,45.48677],[9.18465,45.48688],[9.1824,45.48795],[9.18149,45.48252],[9.18183,45.48201],[9.18223,45.48215],[9.18698,45.48096],[9.188,45.48081],[9.19046,45.48069],[9.19099,45.48051],[9.19225,45.4803],[9.19212,45.47973],[9.1944,45.47949],[9.19638,45.48035],[9.1975,45.48096],[9.19732,45.48105],[9.19871,45.48484]]]}},{"type":"Feature","properties":{"id":10,"name":"Stazione Centrale · Ponte Seveso"},"geometry":{"type":"Polygon","coordinates":[[[9.21836,45.4997],[9.21683,45.50024],[9.21651,45.49994],[9.21493,45.49909],[9.21461,45.49798],[9.21087,45.49423],[9.20776,45.49578],[9.20741,45.49505],[9.20645,45.49417],[9.19807,45.48701],[9.19931,45.48634],[9.19732,45.48105],[9.1975,45.48096],[9.19638,45.48035],[9.1944,45.47949],[9.2009,45.47654],[9.20393,45.47981],[9.21242,45.4879],[9.20948,45.48939],[9.21585,45.49579],[9.21576,45.49591],[9.21609,45.49622],[9.21763,45.4968],[9.21902,45.49701],[9.21894,45.49827],[9.21922,45.4988],[9.21944,45.49901],[9.21877,45.49951],[9.21836,45.4997]]]}},{"type":"Feature","properties":{"id":11,"name":"Isola"},"geometry":{"type":"Polygon","coordinates":[[[9.20116,45.48963],[9.19809,45.49117],[9.19284,45.4926],[9.19453,45.49555],[9.18666,45.49765],[9.1866,45.49752],[9.18415,45.49737],[9.18113,45.49041],[9.18245,45.48834],[9.1824,45.48795],[9.18465,45.48688],[9.18519,45.48677],[9.18516,45.48665],[9.18667,45.48596],[9.18722,45.48575],[9.18829,45.48557],[9.18833,45.4853],[9.18905,45.48531],[9.1892,45.48477],[9.19071,45.48453],[9.19244,45.48484],[9.19351,45.48535],[9.19395,45.48597],[9.19418,45.48601],[9.1958,45.48817],[9.19807,45.48701],[9.20116,45.48963]]]}},{"type":"Feature","properties":{"id":12,"name":"Maciachini · Maggiolina"},"geometry":{"type":"Polygon","coordinates":[[[9.18489,45.50554],[9.18378,45.50571],[9.18823,45.50144],[9.18666,45.49765],[9.19453,45.49555],[9.19284,45.4926],[9.19809,45.49117],[9.20116,45.48963],[9.20645,45.49417],[9.20757,45.49528],[9.20258,45.49701],[9.20649,45.50217],[9.18489,45.50554]]]}},{"type":"Feature","properties":{"id":13,"name":"Greco · Segnano"},"geometry":{"type":"Polygon","coordinates":[[[9.2122,45.50971],[9.21049,45.50932],[9.20972,45.50888],[9.21027,45.50988],[9.2061,45.51101],[9.20582,45.51053],[9.20338,45.51122],[9.19893,45.50335],[9.20649,45.50217],[9.20258,45.49701],[9.20757,45.49528],[9.20776,45.49578],[9.21087,45.49423],[9.21461,45.49798],[9.21493,45.49909],[9.21651,45.49994],[9.21683,45.50024],[9.21836,45.4997],[9.21851,45.49979],[9.21711,45.50097],[9.21733,45.50143],[9.21686,45.50154],[9.21748,45.50272],[9.21761,45.50393],[9.21922,45.5065],[9.21865,45.50954],[9.21828,45.51029],[9.21728,45.50998],[9.2167,45.51061],[9.21647,45.51108],[9.21603,45.51096],[9.21558,45.50863],[9.21553,45.50655],[9.21498,45.50631],[9.21323,45.50725],[9.21226,45.5084],[9.2122,45.50971]]]}},{"type":"Feature","properties":{"id":14,"name":"Niguarda · Ca' Granda · Prato Centenaro · Q.re Fulvio Testi"},"geometry":{"type":"Polygon","coordinates":[[[9.21337,45.52948],[9.21332,45.53008],[9.21199,45.52988],[9.21197,45.52903],[9.21184,45.52903],[9.21197,45.52834],[9.21019,45.52821],[9.21035,45.5285],[9.20803,45.52832],[9.20751,45.52828],[9.20735,45.528],[9.20611,45.52789],[9.20573,45.52931],[9.20309,45.52897],[9.20302,45.52921],[9.20201,45.52909],[9.20211,45.52877],[9.20152,45.52865],[9.20115,45.52989],[9.20007,45.52973],[9.20048,45.52849],[9.2004,45.52848],[9.20222,45.52581],[9.20166,45.52559],[9.20067,45.52544],[9.19973,45.52555],[9.19708,45.52632],[9.18976,45.52631],[9.18863,45.52548],[9.18911,45.5239],[9.1872,45.5235],[9.18722,45.5233],[9.18494,45.5227],[9.18393,45.52274],[9.18482,45.52066],[9.18444,45.52058],[9.18504,45.5193],[9.18535,45.51892],[9.18591,45.51748],[9.18543,45.51738],[9.18373,45.51657],[9.18273,45.51636],[9.18292,45.51579],[9.18369,45.51464],[9.18455,45.51379],[9.18469,45.51297],[9.18416,45.5131],[9.18251,45.51241],[9.18184,45.50836],[9.1821,45.50803],[9.18471,45.50739],[9.18489,45.50554],[9.19893,45.50335],[9.21375,45.5295],[9.21337,45.52948]]]}},{"type":"Feature","properties":{"id":15,"name":"Bicocca"},"geometry":{"type":"Polygon","coordinates":[[[9.22259,45.52361],[9.22219,45.52371],[9.22159,45.52346],[9.2201,45.52341],[9.21975,45.52504],[9.2195,45.525],[9.21941,45.52553],[9.2198,45.52624],[9.21974,45.52677],[9.21611,45.52678],[9.21674,45.52966],[9.21375,45.5295],[9.20338,45.51122],[9.20582,45.51053],[9.2061,45.51101],[9.21027,45.50988],[9.20972,45.50888],[9.21049,45.50932],[9.2122,45.50971],[9.21483,45.51343],[9.21458,45.5135],[9.21558,45.51484],[9.21719,45.5174],[9.21914,45.51984],[9.22259,45.52361]]]}},{"type":"Feature","properties":{"id":16,"name":"Gorla · Precotto"},"geometry":{"type":"Polygon","coordinates":[[[9.23591,45.51747],[9.23583,45.51772],[9.23459,45.51745],[9.23397,45.51898],[9.23354,45.51898],[9.23301,45.52126],[9.23127,45.52115],[9.23089,45.5232],[9.22923,45.52303],[9.22918,45.52322],[9.22601,45.52285],[9.22582,45.52361],[9.22397,45.52336],[9.2239,45.52363],[9.22332,45.52359],[9.2232,45.52344],[9.22259,45.52361],[9.21914,45.51984],[9.21719,45.5174],[9.21558,45.51484],[9.21458,45.5135],[9.21483,45.51343],[9.2122,45.50971],[9.21226,45.5084],[9.21323,45.50725],[9.21498,45.50631],[9.21553,45.50655],[9.21558,45.50863],[9.21603,45.51096],[9.21647,45.51108],[9.2167,45.51061],[9.21728,45.50998],[9.21828,45.51029],[9.21865,45.50954],[9.21922,45.5065],[9.21761,45.50393],[9.21748,45.50272],[9.21686,45.50154],[9.21733,45.50143],[9.2181,45.50248],[9.21911,45.5032],[9.22296,45.50396],[9.22485,45.50403],[9.2267,45.50356],[9.22785,45.50341],[9.23099,45.50396],[9.23358,45.50424],[9.23694,45.50482],[9.23789,45.50507],[9.23761,45.50549],[9.23351,45.51468],[9.2315,45.51443],[9.23137,45.51486],[9.23657,45.51574],[9.23591,45.51747]]]}},{"type":"Feature","properties":{"id":17,"name":"Adriano"},"geometry":{"type":"Polygon","coordinates":[[[9.26729,45.51234],[9.26732,45.51242],[9.26817,45.5124],[9.26843,45.51432],[9.2685,45.51432],[9.26867,45.51519],[9.26871,45.51592],[9.26861,45.51691],[9.26842,45.51684],[9.26847,45.51565],[9.26486,45.51596],[9.26395,45.51515],[9.26209,45.51543],[9.26221,45.51579],[9.26187,45.51585],[9.26238,45.51724],[9.26158,45.51737],[9.26198,45.5185],[9.26102,45.51865],[9.2611,45.51887],[9.26084,45.51892],[9.26098,45.51977],[9.26052,45.51984],[9.26032,45.51954],[9.25996,45.51928],[9.25965,45.51909],[9.25941,45.51915],[9.25912,45.51899],[9.25908,45.51929],[9.2591,45.51947],[9.25927,45.51968],[9.25924,45.52011],[9.2587,45.52014],[9.25838,45.51925],[9.25879,45.51888],[9.25663,45.51786],[9.2569,45.51827],[9.25532,45.51895],[9.25529,45.52017],[9.25539,45.5204],[9.25157,45.51999],[9.24983,45.5197],[9.24968,45.52001],[9.24943,45.51999],[9.2472,45.51933],[9.24488,45.51842],[9.24461,45.519],[9.24392,45.51893],[9.24089,45.51932],[9.23758,45.51869],[9.2379,45.51788],[9.23591,45.51747],[9.23657,45.51574],[9.23137,45.51486],[9.2315,45.51443],[9.23351,45.51468],[9.23761,45.50549],[9.23789,45.50507],[9.24723,45.50944],[9.24861,45.51019],[9.25338,45.51111],[9.25412,45.51135],[9.2544,45.51122],[9.25605,45.51151],[9.25825,45.51203],[9.26198,45.51272],[9.26729,45.51234]]]}},{"type":"Feature","properties":{"id":18,"name":"Cimiano · Rottole · Q.re Feltre"},"geometry":{"type":"Polygon","coordinates":[[[9.2686,45.51035],[9.26715,45.51048],[9.26733,45.51204],[9.26729,45.51234],[9.26701,45.51241],[9.26198,45.51272],[9.25825,45.51203],[9.25605,45.51151],[9.24197,45.50084],[9.23409,45.49462],[9.23144,45.49283],[9.23044,45.4925],[9.23351,45.48902],[9.23631,45.48613],[9.23855,45.48601],[9.24059,45.48613],[9.24931,45.48693],[9.25853,45.48756],[9.25825,45.48973],[9.26115,45.49043],[9.26102,45.49071],[9.26159,45.49495],[9.26203,45.49499],[9.26104,45.49798],[9.26025,45.49934],[9.26014,45.50019],[9.26127,45.50243],[9.26129,45.50358],[9.261,45.50438],[9.26107,45.50445],[9.26113,45.50438],[9.26138,45.50439],[9.26544,45.50508],[9.26645,45.50523],[9.26719,45.50523],[9.2677,45.50535],[9.26799,45.5057],[9.26823,45.50573],[9.27225,45.50566],[9.27234,45.50556],[9.27216,45.50511],[9.27137,45.50182],[9.27381,45.50184],[9.27385,45.50225],[9.27552,45.50231],[9.27568,45.50354],[9.27753,45.5034],[9.27798,45.50524],[9.27653,45.5055],[9.27558,45.50556],[9.27501,45.50597],[9.27489,45.50632],[9.27271,45.50647],[9.27158,45.50677],[9.27145,45.50719],[9.27141,45.50911],[9.27022,45.50899],[9.26877,45.5087],[9.26877,45.51034],[9.2686,45.51035]]]}},{"type":"Feature","properties":{"id":19,"name":"Padova · Turro · Crescenzago"},"geometry":{"type":"Polygon","coordinates":[[[9.25605,45.51151],[9.2544,45.51122],[9.25412,45.51135],[9.25338,45.51111],[9.24861,45.51019],[9.24723,45.50944],[9.23744,45.50492],[9.23358,45.50424],[9.23099,45.50396],[9.22785,45.50341],[9.2267,45.50356],[9.22524,45.50398],[9.22396,45.50405],[9.22296,45.50396],[9.21946,45.50333],[9.21883,45.50304],[9.2181,45.50248],[9.21756,45.5018],[9.21711,45.50097],[9.21851,45.49979],[9.21836,45.4997],[9.21877,45.49951],[9.2204,45.49835],[9.22125,45.49797],[9.22509,45.4966],[9.22695,45.49573],[9.22824,45.49485],[9.23044,45.4925],[9.23083,45.4926],[9.23144,45.49283],[9.23409,45.49462],[9.24197,45.50084],[9.25605,45.51151]]]}},{"type":"Feature","properties":{"id":20,"name":"Loreto · Casoretto · NoLo"},"geometry":{"type":"Polygon","coordinates":[[[9.23044,45.4925],[9.22824,45.49485],[9.22695,45.49573],[9.22509,45.4966],[9.22125,45.49797],[9.2204,45.49835],[9.21944,45.49901],[9.21922,45.4988],[9.21894,45.49827],[9.21902,45.49701],[9.21763,45.4968],[9.21609,45.49622],[9.21576,45.49591],[9.21585,45.49579],[9.20948,45.48939],[9.21597,45.4861],[9.21787,45.48617],[9.21784,45.48601],[9.21928,45.48601],[9.23631,45.48613],[9.23351,45.48902],[9.23044,45.4925]]]}},{"type":"Feature","properties":{"id":21,"name":"Buenos Aires · Porta Venezia · Porta Monforte"},"geometry":{"type":"Polygon","coordinates":[[[9.22356,45.48603],[9.21784,45.48601],[9.21787,45.48617],[9.21597,45.4861],[9.21242,45.4879],[9.20393,45.47981],[9.20159,45.47734],[9.2009,45.47654],[9.20521,45.47458],[9.20635,45.47396],[9.207,45.46787],[9.2238,45.46805],[9.22356,45.48603]]]}},{"type":"Feature","properties":{"id":22,"name":"Città Studi"},"geometry":{"type":"Polygon","coordinates":[[[9.23797,45.46971],[9.2383,45.47578],[9.23854,45.47732],[9.23863,45.47879],[9.23845,45.48207],[9.2379,45.48401],[9.23727,45.48498],[9.23631,45.48613],[9.22356,45.48603],[9.2238,45.46805],[9.23243,45.4681],[9.2344,45.46895],[9.23609,45.46955],[9.23797,45.46971]]]}},{"type":"Feature","properties":{"id":23,"name":"Lambrate · Ortica"},"geometry":{"type":"Polygon","coordinates":[[[9.25876,45.48601],[9.25853,45.48756],[9.24931,45.48693],[9.24059,45.48613],[9.23855,45.48601],[9.23631,45.48613],[9.23727,45.48498],[9.2379,45.48401],[9.23845,45.48207],[9.23863,45.47879],[9.23822,45.47455],[9.2379,45.46813],[9.23892,45.46896],[9.23953,45.46972],[9.24013,45.46968],[9.24533,45.47095],[9.24684,45.47122],[9.24679,45.47149],[9.2494,45.47188],[9.25507,45.47301],[9.26038,45.47389],[9.26035,45.47659],[9.26179,45.4766],[9.26146,45.47914],[9.26187,45.4792],[9.26221,45.47908],[9.26455,45.47928],[9.26472,45.48043],[9.26488,45.48418],[9.25931,45.4842],[9.25895,45.48449],[9.25876,45.48601]]]}},{"type":"Feature","properties":{"id":24,"name":"Parco Forlanini · Cavriano"},"geometry":{"type":"Polygon","coordinates":[[[9.26017,45.47147],[9.26009,45.4716],[9.2602,45.47178],[9.25995,45.4723],[9.26044,45.47316],[9.26038,45.47389],[9.25507,45.47301],[9.2494,45.47188],[9.24679,45.47149],[9.24684,45.47122],[9.24533,45.47095],[9.24013,45.46968],[9.23953,45.46972],[9.23892,45.46896],[9.2379,45.46813],[9.23759,45.46206],[9.27205,45.46182],[9.27176,45.46262],[9.2717,45.46321],[9.27155,45.4633],[9.27153,45.46481],[9.27166,45.46537],[9.27131,45.46649],[9.27134,45.46685],[9.27204,45.46692],[9.272,45.46721],[9.27166,45.46718],[9.27157,45.46805],[9.27278,45.4681],[9.27263,45.46942],[9.2726,45.4726],[9.27098,45.47229],[9.26948,45.47236],[9.26806,45.47266],[9.26655,45.4722],[9.26599,45.47194],[9.26318,45.47163],[9.26017,45.47147]]]}},{"type":"Feature","properties":{"id":25,"name":"Corsica"},"geometry":{"type":"Polygon","coordinates":[[[9.2379,45.46813],[9.23797,45.46971],[9.23609,45.46955],[9.2344,45.46895],[9.23243,45.4681],[9.2238,45.46805],[9.22392,45.45969],[9.23352,45.4597],[9.2347,45.45956],[9.23555,45.45924],[9.23631,45.45872],[9.23707,45.45784],[9.23747,45.45782],[9.23747,45.4602],[9.2379,45.46813]]]}},{"type":"Feature","properties":{"id":26,"name":"XXII Marzo"},"geometry":{"type":"Polygon","coordinates":[[[9.22391,45.46067],[9.2238,45.46805],[9.207,45.46787],[9.20722,45.46632],[9.20773,45.46053],[9.20587,45.45814],[9.20495,45.45645],[9.20913,45.45482],[9.20967,45.45548],[9.21072,45.45506],[9.21165,45.45468],[9.21104,45.45398],[9.21439,45.45264],[9.21559,45.4541],[9.21571,45.45405],[9.21623,45.45477],[9.2161,45.45482],[9.21663,45.4558],[9.21707,45.45693],[9.21739,45.45859],[9.2174,45.46055],[9.22391,45.46067]]]}},{"type":"Feature","properties":{"id":27,"name":"Porta Romana"},"geometry":{"type":"Polygon","coordinates":[[[9.21439,45.45264],[9.21104,45.45398],[9.21165,45.45468],[9.21072,45.45506],[9.20967,45.45548],[9.20913,45.45482],[9.20495,45.45645],[9.20255,45.45196],[9.20186,45.45238],[9.20115,45.45196],[9.19652,45.45204],[9.19836,45.44526],[9.20448,45.44549],[9.20454,45.44616],[9.20448,45.44659],[9.20429,45.4468],[9.21067,45.44704],[9.21002,45.44739],[9.21439,45.45264]]]}},{"type":"Feature","properties":{"id":28,"name":"Umbria · Molise · Calvairate"},"geometry":{"type":"Polygon","coordinates":[[[9.22392,45.45969],[9.22391,45.46067],[9.2174,45.46055],[9.21739,45.45859],[9.21726,45.45774],[9.21707,45.45693],[9.21663,45.4558],[9.2161,45.45482],[9.21623,45.45477],[9.21571,45.45405],[9.21559,45.4541],[9.21002,45.44739],[9.21267,45.44579],[9.21325,45.44577],[9.21325,45.44593],[9.22412,45.44637],[9.22392,45.45969]]]}},{"type":"Feature","properties":{"id":29,"name":"Ortomercato"},"geometry":{"type":"Polygon","coordinates":[[[9.23747,45.45782],[9.23707,45.45784],[9.23631,45.45872],[9.23555,45.45924],[9.2347,45.45956],[9.23352,45.4597],[9.22392,45.45969],[9.22412,45.44637],[9.22938,45.4466],[9.22941,45.44805],[9.23017,45.44752],[9.23092,45.44717],[9.23226,45.44677],[9.23324,45.44706],[9.23428,45.44752],[9.23536,45.44832],[9.23579,45.44872],[9.23625,45.44942],[9.23684,45.45087],[9.23731,45.45427],[9.23747,45.45782]]]}},{"type":"Feature","properties":{"id":30,"name":"Taliedo · Morsenchio · Q.re Forlanini"},"geometry":{"type":"Polygon","coordinates":[[[9.25129,45.46198],[9.23759,45.46206],[9.23731,45.45427],[9.23684,45.45087],[9.23625,45.44942],[9.23579,45.44872],[9.235,45.44707],[9.2348,45.44624],[9.2348,45.44588],[9.23738,45.44518],[9.2387,45.44454],[9.23951,45.44435],[9.24084,45.44424],[9.24247,45.44435],[9.24266,45.44346],[9.24352,45.4419],[9.24338,45.44186],[9.24348,45.44151],[9.24397,45.4412],[9.24358,45.44089],[9.24422,45.44039],[9.24269,45.43938],[9.24892,45.43548],[9.2487,45.43455],[9.24884,45.43457],[9.2502,45.4338],[9.25302,45.43613],[9.25539,45.43542],[9.25585,45.43646],[9.25669,45.43892],[9.25749,45.4421],[9.25867,45.4461],[9.25888,45.44733],[9.25871,45.44884],[9.25802,45.45024],[9.253,45.45624],[9.25234,45.45719],[9.25196,45.45796],[9.25153,45.45952],[9.25129,45.46198]]]}},{"type":"Feature","properties":{"id":31,"name":"Monluè · Ponte Lambro"},"geometry":{"type":"Polygon","coordinates":[[[9.27271,45.46079],[9.27205,45.46182],[9.25129,45.46198],[9.25153,45.45952],[9.25196,45.45796],[9.25234,45.45719],[9.253,45.45624],[9.25802,45.45024],[9.25871,45.44884],[9.25883,45.44822],[9.25884,45.44679],[9.25867,45.4461],[9.25749,45.4421],[9.25669,45.43892],[9.25585,45.43646],[9.25539,45.43542],[9.26006,45.43393],[9.26385,45.43248],[9.26414,45.43295],[9.26551,45.43453],[9.26607,45.43487],[9.26652,45.43501],[9.2661,45.43616],[9.26604,45.4373],[9.26607,45.43741],[9.26664,45.4374],[9.26688,45.43757],[9.26694,45.43807],[9.26685,45.43881],[9.26713,45.43946],[9.26706,45.43976],[9.26646,45.44069],[9.26631,45.44171],[9.26648,45.44261],[9.26643,45.44341],[9.26684,45.44581],[9.26648,45.44651],[9.26648,45.44716],[9.26659,45.44767],[9.26701,45.44823],[9.26731,45.44889],[9.26743,45.44973],[9.26701,45.45031],[9.26608,45.45081],[9.26622,45.45112],[9.26614,45.4512],[9.26582,45.45132],[9.26517,45.45124],[9.26474,45.45198],[9.26487,45.45201],[9.26492,45.4519],[9.26525,45.45211],[9.26503,45.45232],[9.26511,45.45248],[9.26463,45.45296],[9.26366,45.45524],[9.2638,45.45544],[9.26397,45.45546],[9.26404,45.45571],[9.26462,45.45569],[9.26447,45.45749],[9.26605,45.45785],[9.26832,45.45817],[9.26832,45.45811],[9.26943,45.45823],[9.26949,45.45851],[9.2693,45.45848],[9.26924,45.45888],[9.26997,45.45891],[9.27038,45.45949],[9.2702,45.46046],[9.27002,45.46062],[9.27168,45.46078],[9.27276,45.46072],[9.27271,45.46079]]]}},{"type":"Feature","properties":{"id":32,"name":"Triulzo Superiore"},"geometry":{"type":"Polygon","coordinates":[[[9.26378,45.43251],[9.26006,45.43393],[9.25539,45.43542],[9.25497,45.43465],[9.25439,45.43385],[9.253,45.43234],[9.25176,45.43132],[9.24782,45.42885],[9.24684,45.42934],[9.24683,45.42954],[9.24617,45.42987],[9.24268,45.43153],[9.23934,45.43298],[9.23981,45.43162],[9.24023,45.42963],[9.24045,45.42846],[9.24047,45.427],[9.24023,45.42545],[9.23894,45.42015],[9.24034,45.41952],[9.24267,45.42128],[9.24517,45.42263],[9.24563,45.423],[9.24743,45.42351],[9.24852,45.42353],[9.25085,45.4225],[9.25169,45.42286],[9.25388,45.4235],[9.25409,45.42363],[9.25178,45.42561],[9.25358,45.42644],[9.25419,45.42703],[9.25852,45.42943],[9.259,45.42997],[9.25944,45.43028],[9.26028,45.43045],[9.2613,45.43099],[9.2617,45.43132],[9.262,45.43137],[9.2628,45.43183],[9.26381,45.43245],[9.26378,45.43251]]]}},{"type":"Feature","properties":{"id":33,"name":"Rogoredo · Santa Giulia"},"geometry":{"type":"Polygon","coordinates":[[[9.24044,45.44427],[9.23951,45.44435],[9.2387,45.44454],[9.23738,45.44518],[9.2348,45.44588],[9.23501,45.44414],[9.23677,45.43942],[9.23829,45.43598],[9.23934,45.43298],[9.24268,45.43153],[9.24617,45.42987],[9.24683,45.42954],[9.24684,45.42934],[9.24782,45.42885],[9.25209,45.43158],[9.253,45.43234],[9.25365,45.43303],[9.25497,45.43465],[9.25539,45.43542],[9.25302,45.43613],[9.2502,45.4338],[9.24884,45.43457],[9.2487,45.43455],[9.24892,45.43548],[9.24269,45.43938],[9.24422,45.44039],[9.24358,45.44089],[9.24397,45.4412],[9.24348,45.44151],[9.24338,45.44186],[9.24352,45.4419],[9.24266,45.44346],[9.24247,45.44435],[9.24142,45.44425],[9.24044,45.44427]]]}},{"type":"Feature","properties":{"id":34,"name":"Chiaravalle"},"geometry":{"type":"Polygon","coordinates":[[[9.24507,45.41742],[9.24412,45.41794],[9.23894,45.42015],[9.23881,45.42011],[9.23855,45.41969],[9.23714,45.41818],[9.23491,45.41601],[9.23378,45.41511],[9.23732,45.41349],[9.23816,45.4169],[9.23835,45.41687],[9.23897,45.41629],[9.23892,45.41621],[9.23929,45.41596],[9.23969,45.41486],[9.23936,45.41443],[9.2403,45.41414],[9.24133,45.4146],[9.24303,45.41508],[9.24507,45.41742]]]}},{"type":"Feature","properties":{"id":35,"name":"Lodi · Corvetto"},"geometry":{"type":"Polygon","coordinates":[[[9.2348,45.44588],[9.235,45.44707],[9.23579,45.44872],[9.23428,45.44752],[9.23324,45.44706],[9.23226,45.44677],[9.23092,45.44717],[9.23017,45.44752],[9.22941,45.44805],[9.22938,45.4466],[9.21325,45.44593],[9.21325,45.44577],[9.21267,45.44579],[9.21155,45.44488],[9.21311,45.44184],[9.21685,45.43686],[9.21721,45.43696],[9.21776,45.43572],[9.21922,45.43443],[9.22116,45.43297],[9.22202,45.43242],[9.22298,45.43197],[9.2236,45.43175],[9.22413,45.43169],[9.22611,45.43032],[9.22651,45.4298],[9.22787,45.4285],[9.22886,45.4274],[9.23463,45.42261],[9.23894,45.42015],[9.24023,45.42545],[9.24047,45.427],[9.24045,45.42846],[9.23981,45.43162],[9.23829,45.43598],[9.23677,45.43942],[9.23501,45.44414],[9.2348,45.44588]]]}},{"type":"Feature","properties":{"id":36,"name":"Scalo Romana"},"geometry":{"type":"Polygon","coordinates":[[[9.21561,45.43849],[9.21311,45.44184],[9.21155,45.44488],[9.21267,45.44579],[9.21067,45.44704],[9.20429,45.4468],[9.20448,45.44659],[9.20454,45.44616],[9.20448,45.44549],[9.19836,45.44526],[9.19942,45.44152],[9.19966,45.44093],[9.2006,45.43608],[9.20604,45.4366],[9.20626,45.4337],[9.20775,45.43312],[9.2077,45.43307],[9.20804,45.43285],[9.20856,45.43209],[9.21178,45.43271],[9.2143,45.43347],[9.21485,45.4335],[9.21531,45.43232],[9.21711,45.43187],[9.21733,45.4316],[9.21866,45.43231],[9.21947,45.43172],[9.22117,45.43022],[9.22195,45.43009],[9.22217,45.42984],[9.22433,45.4306],[9.2234,45.43114],[9.22413,45.43169],[9.2236,45.43175],[9.22202,45.43242],[9.21922,45.43443],[9.21776,45.43572],[9.21721,45.43696],[9.21685,45.43686],[9.21561,45.43849]]]}},{"type":"Feature","properties":{"id":37,"name":"Morivione"},"geometry":{"type":"Polygon","coordinates":[[[9.2006,45.43608],[9.19966,45.44093],[9.19942,45.44152],[9.19836,45.44526],[9.19068,45.44508],[9.18866,45.44491],[9.18773,45.44474],[9.18782,45.44254],[9.18775,45.43732],[9.19772,45.4372],[9.19814,45.43735],[9.19836,45.43695],[9.19954,45.43618],[9.19987,45.43607],[9.2006,45.43608]]]}},{"type":"Feature","properties":{"id":38,"name":"Vigentino · Q.re Fatima"},"geometry":{"type":"Polygon","coordinates":[[[9.2006,45.43608],[9.19987,45.43607],[9.19954,45.43618],[9.19836,45.43695],[9.19814,45.43735],[9.19772,45.4372],[9.18941,45.43729],[9.18994,45.43698],[9.19122,45.4357],[9.19479,45.43035],[9.19599,45.42792],[9.19774,45.42382],[9.19848,45.4229],[9.1991,45.42243],[9.20375,45.42024],[9.20473,45.41935],[9.20599,45.41964],[9.20516,45.42203],[9.20656,45.4233],[9.20687,45.42331],[9.20692,45.42314],[9.20743,45.42324],[9.20761,45.42295],[9.21012,45.42347],[9.20944,45.42473],[9.21208,45.42504],[9.21243,45.42524],[9.21145,45.42642],[9.21099,45.42714],[9.21039,45.42912],[9.20954,45.43122],[9.20897,45.43148],[9.20825,45.43259],[9.2077,45.43307],[9.20775,45.43312],[9.20626,45.4337],[9.20604,45.4366],[9.2006,45.43608]]]}},{"type":"Feature","properties":{"id":39,"name":"Quintosole"},"geometry":{"type":"Polygon","coordinates":[[[9.21047,45.39699],[9.20965,45.40018],[9.20619,45.39953],[9.20595,45.39974],[9.20599,45.40059],[9.20585,45.40088],[9.20479,45.4022],[9.20636,45.40299],[9.20705,45.40318],[9.20882,45.40345],[9.20639,45.41309],[9.20486,45.41279],[9.20464,45.41306],[9.20032,45.41131],[9.20044,45.40563],[9.20028,45.40492],[9.20041,45.40408],[9.20185,45.40159],[9.19875,45.40167],[9.19882,45.39988],[9.19981,45.4001],[9.19993,45.39982],[9.2044,45.40047],[9.20448,45.39976],[9.20428,45.39966],[9.20387,45.39881],[9.20379,45.39755],[9.20341,45.39755],[9.20335,45.39654],[9.20346,45.39613],[9.20387,45.39586],[9.20384,45.39561],[9.20518,45.39322],[9.20586,45.39333],[9.20605,45.39309],[9.20638,45.39318],[9.20678,45.39308],[9.20749,45.39266],[9.20916,45.39304],[9.20892,45.39403],[9.20882,45.39408],[9.2088,45.39597],[9.20958,45.39687],[9.21047,45.39699]]]}},{"type":"Feature","properties":{"id":40,"name":"Ronchetto delle Rane"},"geometry":{"type":"Polygon","coordinates":[[[9.18364,45.40122],[9.18338,45.40197],[9.18347,45.40245],[9.18312,45.40313],[9.18306,45.40365],[9.18177,45.40391],[9.17781,45.40281],[9.17811,45.40233],[9.1791,45.40145],[9.17933,45.40137],[9.18048,45.3999],[9.18104,45.40004],[9.18107,45.39975],[9.18274,45.40002],[9.18285,45.3998],[9.183,45.39869],[9.18268,45.39791],[9.18302,45.39776],[9.18561,45.39765],[9.18499,45.39928],[9.18364,45.40122]]]}},{"type":"Feature","properties":{"id":41,"name":"Gratosoglio · Q.re Missaglia · Q.re Terrazze"},"geometry":{"type":"Polygon","coordinates":[[[9.17334,45.42346],[9.17074,45.42341],[9.17046,45.42313],[9.16966,45.42019],[9.16882,45.42014],[9.16629,45.42057],[9.16252,45.41406],[9.15892,45.40816],[9.15887,45.40808],[9.15914,45.408],[9.15689,45.40412],[9.1569,45.40401],[9.15799,45.40299],[9.15591,45.40153],[9.15685,45.40113],[9.15706,45.40116],[9.15866,45.4016],[9.15814,45.40258],[9.15997,45.40297],[9.16229,45.40318],[9.16298,45.40337],[9.16407,45.40306],[9.16423,45.40328],[9.16409,45.40332],[9.16408,45.40342],[9.16438,45.40352],[9.16515,45.40313],[9.1656,45.40305],[9.16591,45.40237],[9.16641,45.40218],[9.16529,45.40044],[9.1666,45.40045],[9.16651,45.40089],[9.16737,45.40125],[9.1681,45.4022],[9.16996,45.40277],[9.1707,45.40286],[9.1705,45.40074],[9.17399,45.40077],[9.17445,45.40277],[9.17526,45.40473],[9.17529,45.40541],[9.17498,45.40666],[9.17617,45.40657],[9.17621,45.40603],[9.18003,45.40554],[9.18005,45.40708],[9.18226,45.40728],[9.18207,45.4082],[9.18351,45.40831],[9.18258,45.41076],[9.18196,45.41473],[9.18217,45.41522],[9.18194,45.41561],[9.18183,45.41714],[9.18167,45.41796],[9.18192,45.41816],[9.18169,45.41834],[9.18227,45.42014],[9.18041,45.42107],[9.18068,45.42146],[9.18063,45.42234],[9.17852,45.42235],[9.17829,45.4224],[9.17792,45.42275],[9.17714,45.42275],[9.17708,45.42218],[9.17483,45.4222],[9.17402,45.42205],[9.17334,45.42346]]]}},{"type":"Feature","properties":{"id":42,"name":"Stadera · Chiesa Rossa · Q.re Torretta · Conca Fallata"},"geometry":{"type":"Polygon","coordinates":[[[9.18775,45.43732],[9.17865,45.43741],[9.17778,45.43744],[9.17735,45.43755],[9.17111,45.43766],[9.16995,45.4352],[9.1694,45.43439],[9.16865,45.43352],[9.1676,45.43257],[9.16559,45.43112],[9.16352,45.4294],[9.16227,45.42787],[9.16112,45.42589],[9.16346,45.42518],[9.16582,45.42331],[9.16751,45.42268],[9.16629,45.42057],[9.16882,45.42014],[9.16966,45.42019],[9.17046,45.42313],[9.17074,45.42341],[9.17334,45.42346],[9.17402,45.42205],[9.17483,45.4222],[9.17708,45.42218],[9.17714,45.42275],[9.17792,45.42275],[9.17829,45.4224],[9.17852,45.42235],[9.18063,45.42234],[9.18069,45.42537],[9.18048,45.42556],[9.18081,45.42588],[9.18258,45.42699],[9.18341,45.42609],[9.18423,45.42648],[9.18584,45.4252],[9.18791,45.42633],[9.18917,45.42521],[9.19009,45.42576],[9.1908,45.42526],[9.19106,45.42546],[9.19385,45.42556],[9.19373,45.42783],[9.19599,45.42792],[9.19512,45.42979],[9.19152,45.43529],[9.19049,45.43649],[9.18994,45.43698],[9.18941,45.43729],[9.18775,45.43732]]]}},{"type":"Feature","properties":{"id":43,"name":"Tibaldi"},"geometry":{"type":"Polygon","coordinates":[[[9.18775,45.43732],[9.18782,45.44254],[9.18773,45.44474],[9.18129,45.44291],[9.17985,45.44274],[9.17267,45.44301],[9.1725,45.44036],[9.17224,45.43949],[9.17111,45.43766],[9.17735,45.43755],[9.17778,45.43744],[9.17865,45.43741],[9.18775,45.43732]]]}},{"type":"Feature","properties":{"id":44,"name":"Porta Ticinese · Conchetta"},"geometry":{"type":"Polygon","coordinates":[[[9.17348,45.45583],[9.17273,45.45631],[9.17173,45.45558],[9.16874,45.45755],[9.1684,45.45715],[9.16933,45.45589],[9.16955,45.45518],[9.16956,45.45412],[9.1691,45.45269],[9.16883,45.45213],[9.1682,45.4515],[9.16754,45.45102],[9.16646,45.45056],[9.16544,45.45032],[9.16153,45.44985],[9.15492,45.44854],[9.15497,45.44806],[9.15613,45.44783],[9.15736,45.44737],[9.15815,45.44688],[9.15981,45.44527],[9.1606,45.44471],[9.16165,45.44417],[9.16264,45.44382],[9.16436,45.44344],[9.17587,45.44287],[9.1781,45.45227],[9.17894,45.45236],[9.17868,45.45301],[9.17729,45.45293],[9.17587,45.45413],[9.17348,45.45583]]]}},{"type":"Feature","properties":{"id":45,"name":"Moncucco · San Cristoforo"},"geometry":{"type":"Polygon","coordinates":[[[9.15497,45.44806],[9.15394,45.44812],[9.15281,45.44806],[9.14557,45.44636],[9.14775,45.4428],[9.15422,45.43775],[9.15419,45.43707],[9.17111,45.43766],[9.17195,45.43893],[9.17224,45.43949],[9.1725,45.44036],[9.17267,45.44301],[9.16436,45.44344],[9.16264,45.44382],[9.16165,45.44417],[9.1606,45.44471],[9.15981,45.44527],[9.15815,45.44688],[9.15736,45.44737],[9.15613,45.44783],[9.15497,45.44806]]]}},{"type":"Feature","properties":{"id":46,"name":"Barona"},"geometry":{"type":"Polygon","coordinates":[[[9.16112,45.42589],[9.16227,45.42787],[9.16352,45.4294],[9.16559,45.43112],[9.1676,45.43257],[9.16865,45.43352],[9.1694,45.43439],[9.16995,45.4352],[9.17111,45.43766],[9.14671,45.43679],[9.14562,45.43565],[9.1425,45.43349],[9.14216,45.43307],[9.14197,45.43259],[9.14134,45.43252],[9.14153,45.43203],[9.14071,45.43099],[9.14992,45.42923],[9.14988,45.42894],[9.15001,45.4288],[9.15111,45.4283],[9.15081,45.42783],[9.1528,45.42592],[9.15426,45.42533],[9.1563,45.4247],[9.15587,45.42403],[9.15709,45.42341],[9.15801,45.42492],[9.15861,45.42639],[9.15889,45.42776],[9.15984,45.42722],[9.15989,45.42708],[9.15971,45.42676],[9.16012,45.42624],[9.16112,45.42589]]]}},{"type":"Feature","properties":{"id":47,"name":"Cantalupa"},"geometry":{"type":"Polygon","coordinates":[[[9.16112,45.42589],[9.16012,45.42624],[9.15971,45.42676],[9.15989,45.42708],[9.15984,45.42722],[9.15889,45.42776],[9.15861,45.42639],[9.15801,45.42492],[9.15709,45.42341],[9.15587,45.42403],[9.1563,45.4247],[9.15401,45.42542],[9.15342,45.4252],[9.15143,45.42413],[9.15102,45.42447],[9.15015,45.42396],[9.15025,45.42357],[9.14905,45.42164],[9.14781,45.42089],[9.14979,45.41959],[9.15039,45.41938],[9.15053,45.41917],[9.15109,45.41906],[9.15209,45.41845],[9.15114,45.41773],[9.15235,45.41655],[9.1533,45.41696],[9.15375,45.41749],[9.15433,45.41743],[9.15445,45.41758],[9.15579,45.41742],[9.15712,45.41709],[9.15757,45.41749],[9.15877,45.41719],[9.1591,45.41725],[9.15905,45.41836],[9.16018,45.41866],[9.15973,45.41953],[9.1598,45.41966],[9.16283,45.42031],[9.1652,45.42033],[9.16532,45.42197],[9.16691,45.42164],[9.16751,45.42268],[9.16582,45.42331],[9.16346,45.42518],[9.16112,45.42589]]]}},{"type":"Feature","properties":{"id":48,"name":"Ronchetto sul Naviglio · Q.re Lodovico il Moro"},"geometry":{"type":"Polygon","coordinates":[[[9.15422,45.43775],[9.14775,45.4428],[9.14557,45.44636],[9.13815,45.4446],[9.11882,45.43913],[9.11966,45.43836],[9.12034,45.43741],[9.12073,45.43752],[9.12194,45.43554],[9.12208,45.43509],[9.12133,45.43481],[9.12123,45.43467],[9.12162,45.43444],[9.12563,45.43102],[9.1257,45.43143],[9.12379,45.43485],[9.12348,45.43555],[9.12643,45.43737],[9.12679,45.43717],[9.12974,45.4362],[9.13014,45.43597],[9.13109,45.4346],[9.13146,45.43431],[9.13395,45.43284],[9.13566,45.4321],[9.13702,45.4302],[9.13698,45.43001],[9.13901,45.42836],[9.14005,45.43005],[9.14153,45.43203],[9.14134,45.43252],[9.14197,45.43259],[9.14216,45.43307],[9.1425,45.43349],[9.14562,45.43565],[9.14671,45.43679],[9.15419,45.43707],[9.15422,45.43775]]]}},{"type":"Feature","properties":{"id":49,"name":"Giambellino"},"geometry":{"type":"Polygon","coordinates":[[[9.15285,45.45492],[9.15269,45.45521],[9.12424,45.44597],[9.11885,45.4446],[9.11547,45.44323],[9.11684,45.4409],[9.11742,45.44052],[9.11882,45.43913],[9.12321,45.44044],[9.13912,45.44486],[9.15281,45.44806],[9.15394,45.44812],[9.15497,45.44806],[9.15492,45.44854],[9.15619,45.44876],[9.15549,45.45],[9.15549,45.45019],[9.15416,45.45247],[9.15524,45.45278],[9.15444,45.45431],[9.15336,45.454],[9.15285,45.45492]]]}},{"type":"Feature","properties":{"id":50,"name":"Porta Genova"},"geometry":{"type":"Polygon","coordinates":[[[9.16874,45.45755],[9.16579,45.4595],[9.16246,45.45832],[9.15269,45.45521],[9.15336,45.454],[9.15444,45.45431],[9.15524,45.45278],[9.15416,45.45247],[9.15549,45.45019],[9.15549,45.45],[9.15619,45.44876],[9.16153,45.44985],[9.16544,45.45032],[9.16646,45.45056],[9.16754,45.45102],[9.1682,45.4515],[9.16883,45.45213],[9.1691,45.45269],[9.16956,45.45412],[9.16955,45.45518],[9.16933,45.45589],[9.1684,45.45715],[9.16874,45.45755]]]}},{"type":"Feature","properties":{"id":51,"name":"Porta Magenta"},"geometry":{"type":"Polygon","coordinates":[[[9.1552,45.46687],[9.15283,45.46706],[9.15065,45.46641],[9.15005,45.46685],[9.14863,45.46652],[9.14859,45.46672],[9.14606,45.46695],[9.14668,45.46543],[9.15002,45.45974],[9.15067,45.45847],[9.15269,45.45521],[9.16246,45.45832],[9.16579,45.4595],[9.1638,45.4608],[9.16342,45.46129],[9.16486,45.46619],[9.1552,45.46687]]]}},{"type":"Feature","properties":{"id":52,"name":"Bande Nere"},"geometry":{"type":"Polygon","coordinates":[[[9.12727,45.46894],[9.12613,45.46928],[9.12745,45.46495],[9.12794,45.46303],[9.12965,45.45953],[9.13464,45.45128],[9.13491,45.45118],[9.13575,45.44969],[9.15269,45.45521],[9.15067,45.45847],[9.15002,45.45974],[9.14668,45.46543],[9.14606,45.46695],[9.14148,45.46738],[9.13601,45.46744],[9.12985,45.46818],[9.12874,45.4684],[9.12727,45.46894]]]}},{"type":"Feature","properties":{"id":53,"name":"Lorenteggio"},"geometry":{"type":"Polygon","coordinates":[[[9.13575,45.44969],[9.13491,45.45118],[9.13464,45.45128],[9.12965,45.45953],[9.11488,45.45565],[9.10543,45.4538],[9.10204,45.45208],[9.10098,45.45173],[9.09988,45.45158],[9.09871,45.4516],[9.0996,45.44925],[9.10005,45.4486],[9.10085,45.44845],[9.10135,45.44788],[9.10151,45.44753],[9.1021,45.44724],[9.10293,45.44722],[9.10347,45.44698],[9.10354,45.44709],[9.10298,45.44754],[9.10443,45.44802],[9.10458,45.44783],[9.10547,45.4481],[9.10508,45.44864],[9.10645,45.4491],[9.10688,45.4499],[9.10664,45.45037],[9.10798,45.45051],[9.10934,45.45098],[9.10956,45.45094],[9.1097,45.45059],[9.11041,45.45059],[9.11125,45.44794],[9.11149,45.44799],[9.11227,45.44616],[9.1127,45.44627],[9.11281,45.44601],[9.11304,45.44603],[9.11306,45.44595],[9.11217,45.44585],[9.11211,45.44577],[9.11346,45.44333],[9.11519,45.44377],[9.11548,45.44324],[9.11885,45.4446],[9.12424,45.44597],[9.13575,45.44969]]]}},{"type":"Feature","properties":{"id":54,"name":"Muggiano"},"geometry":{"type":"Polygon","coordinates":[[[9.07736,45.45589],[9.07688,45.45594],[9.07663,45.45521],[9.07456,45.45405],[9.0741,45.45439],[9.07319,45.45473],[9.07195,45.45416],[9.06589,45.45245],[9.06742,45.45039],[9.06661,45.45005],[9.06648,45.44992],[9.06653,45.44973],[9.06784,45.44815],[9.06814,45.44799],[9.06841,45.44753],[9.07547,45.44952],[9.07736,45.45589]]]}},{"type":"Feature","properties":{"id":55,"name":"Baggio · Q.re degli Olmi · Q.re Valsesia"},"geometry":{"type":"Polygon","coordinates":[[[9.09315,45.46938],[9.09278,45.47083],[9.09215,45.47122],[9.08587,45.47025],[9.08138,45.46984],[9.08202,45.46945],[9.08342,45.46891],[9.08415,45.46848],[9.0845,45.46822],[9.0849,45.46757],[9.08219,45.46674],[9.08161,45.46691],[9.08134,45.4669],[9.07736,45.46597],[9.07716,45.46591],[9.07704,45.46552],[9.07647,45.46566],[9.07615,45.46437],[9.07613,45.46365],[9.07567,45.46358],[9.07551,45.46337],[9.07514,45.4632],[9.07383,45.46284],[9.07368,45.46284],[9.07321,45.46318],[9.07064,45.46456],[9.06927,45.465],[9.06917,45.46482],[9.06925,45.46467],[9.06999,45.46425],[9.06976,45.46391],[9.06978,45.46372],[9.07018,45.46307],[9.07103,45.46251],[9.07162,45.46233],[9.0718,45.46212],[9.07179,45.46191],[9.07168,45.46178],[9.07207,45.46133],[9.07212,45.46106],[9.07262,45.46062],[9.07314,45.46045],[9.0734,45.46014],[9.07366,45.46009],[9.07452,45.45934],[9.07445,45.45932],[9.07458,45.45909],[9.0744,45.45905],[9.07467,45.45888],[9.07477,45.45801],[9.07449,45.45736],[9.07252,45.45712],[9.07256,45.457],[9.07751,45.45736],[9.07736,45.45589],[9.07547,45.44952],[9.07669,45.44936],[9.07785,45.44945],[9.07666,45.45125],[9.07744,45.45199],[9.07758,45.45194],[9.07789,45.45239],[9.07841,45.45222],[9.07905,45.45136],[9.07957,45.451],[9.08038,45.45158],[9.08158,45.45086],[9.0827,45.45136],[9.0833,45.45139],[9.086,45.45271],[9.08616,45.4529],[9.08684,45.45296],[9.08761,45.45344],[9.09298,45.4523],[9.09316,45.45238],[9.09365,45.45164],[9.09392,45.45154],[9.09537,45.45009],[9.09527,45.4499],[9.09572,45.44911],[9.09548,45.44897],[9.09609,45.44858],[9.09679,45.4489],[9.09787,45.44771],[9.09885,45.44688],[9.10123,45.44696],[9.10021,45.44844],[9.10029,45.44846],[9.10005,45.4486],[9.0996,45.44925],[9.09871,45.4516],[9.09988,45.45158],[9.10098,45.45173],[9.10204,45.45208],[9.10308,45.45261],[9.10211,45.45265],[9.10133,45.45313],[9.10061,45.45478],[9.09745,45.45804],[9.09826,45.45828],[9.09709,45.46024],[9.09698,45.46026],[9.09607,45.4625],[9.09753,45.46286],[9.09681,45.4648],[9.09617,45.46547],[9.09593,45.46541],[9.09422,45.46807],[9.09393,45.46802],[9.09315,45.46938]]]}},{"type":"Feature","properties":{"id":56,"name":"Forze Armate"},"geometry":{"type":"Polygon","coordinates":[[[9.12613,45.46928],[9.12427,45.46988],[9.11895,45.47289],[9.11695,45.47119],[9.11622,45.47098],[9.11419,45.47063],[9.11085,45.46977],[9.10963,45.46964],[9.10646,45.46897],[9.10554,45.4711],[9.10448,45.4708],[9.10397,45.47075],[9.10347,45.47106],[9.10249,45.47115],[9.10162,45.47049],[9.10292,45.46918],[9.10362,45.4666],[9.10599,45.46666],[9.10748,45.46683],[9.10962,45.4669],[9.10952,45.46675],[9.10937,45.46576],[9.11007,45.46352],[9.10714,45.46297],[9.10754,45.46149],[9.10686,45.46143],[9.10635,45.46175],[9.10608,45.46212],[9.10343,45.46178],[9.10298,45.46275],[9.10223,45.46267],[9.10139,45.46105],[9.09924,45.46074],[9.09772,45.46086],[9.09753,45.46286],[9.09607,45.4625],[9.09698,45.46026],[9.09709,45.46024],[9.09826,45.45828],[9.09745,45.45804],[9.10061,45.45478],[9.10133,45.45313],[9.10211,45.45265],[9.10308,45.45261],[9.10543,45.4538],[9.11488,45.45565],[9.12965,45.45953],[9.12794,45.46303],[9.12745,45.46495],[9.12613,45.46928]]]}},{"type":"Feature","properties":{"id":57,"name":"San Siro"},"geometry":{"type":"Polygon","coordinates":[[[9.14606,45.46695],[9.14412,45.47319],[9.14333,45.47543],[9.14287,45.47716],[9.14291,45.47911],[9.13858,45.47632],[9.13861,45.47596],[9.1377,45.47597],[9.13765,45.47525],[9.13709,45.47537],[9.1297,45.47052],[9.12935,45.47015],[9.12917,45.47013],[9.12727,45.46894],[9.12874,45.4684],[9.12985,45.46818],[9.13601,45.46744],[9.14148,45.46738],[9.14606,45.46695]]]}},{"type":"Feature","properties":{"id":58,"name":"De Angeli · Monte Rosa"},"geometry":{"type":"Polygon","coordinates":[[[9.15164,45.48045],[9.14479,45.48565],[9.14368,45.48474],[9.14338,45.4842],[9.14317,45.4833],[9.14249,45.48335],[9.14228,45.48312],[9.14312,45.48246],[9.14287,45.47716],[9.14333,45.47543],[9.14412,45.47319],[9.14606,45.46695],[9.14859,45.46672],[9.14863,45.46652],[9.15005,45.46685],[9.15065,45.46641],[9.15283,45.46706],[9.1552,45.46687],[9.15556,45.47356],[9.15162,45.47366],[9.15158,45.4732],[9.15057,45.47398],[9.15134,45.47443],[9.15164,45.48045]]]}},{"type":"Feature","properties":{"id":59,"name":"Tre Torri"},"geometry":{"type":"Polygon","coordinates":[[[9.16028,45.4803],[9.15164,45.48045],[9.15134,45.47443],[9.15057,45.47398],[9.15158,45.4732],[9.15162,45.47366],[9.15982,45.47345],[9.16028,45.4803]]]}},{"type":"Feature","properties":{"id":60,"name":"Stadio · Ippodromi"},"geometry":{"type":"Polygon","coordinates":[[[9.1302,45.48464],[9.12461,45.486],[9.11804,45.48486],[9.11858,45.48665],[9.11852,45.48725],[9.11816,45.48789],[9.11754,45.4883],[9.11257,45.49093],[9.11239,45.49071],[9.11182,45.49088],[9.11112,45.49095],[9.10908,45.49027],[9.10966,45.48909],[9.10881,45.4886],[9.10963,45.48432],[9.11143,45.4764],[9.11502,45.47523],[9.12427,45.46988],[9.12727,45.46894],[9.12917,45.47013],[9.12935,45.47015],[9.1297,45.47052],[9.13709,45.47537],[9.13765,45.47525],[9.1377,45.47597],[9.13861,45.47596],[9.13858,45.47632],[9.14291,45.47911],[9.14075,45.48047],[9.14043,45.48143],[9.1399,45.48204],[9.13946,45.48234],[9.1302,45.48464]]]}},{"type":"Feature","properties":{"id":61,"name":"Quarto Cagnino"},"geometry":{"type":"Polygon","coordinates":[[[9.11143,45.4764],[9.10696,45.47788],[9.10291,45.47943],[9.10214,45.47829],[9.10016,45.47736],[9.10273,45.4742],[9.10112,45.47414],[9.09997,45.47381],[9.09846,45.47313],[9.10162,45.47049],[9.10249,45.47115],[9.10347,45.47106],[9.10397,45.47075],[9.10448,45.4708],[9.10554,45.4711],[9.10646,45.46897],[9.10963,45.46964],[9.11085,45.46977],[9.11419,45.47063],[9.11622,45.47098],[9.11695,45.47119],[9.11895,45.47289],[9.11502,45.47523],[9.11143,45.4764]]]}},{"type":"Feature","properties":{"id":62,"name":"Quinto Romano"},"geometry":{"type":"Polygon","coordinates":[[[9.08375,45.48485],[9.0828,45.48521],[9.08026,45.48509],[9.08029,45.48489],[9.07893,45.48473],[9.07879,45.4852],[9.07698,45.48492],[9.07775,45.4825],[9.07507,45.48208],[9.07267,45.48142],[9.07538,45.47861],[9.07821,45.47885],[9.07835,45.47812],[9.07959,45.47793],[9.08052,45.47829],[9.08059,45.47845],[9.0811,45.47859],[9.08367,45.47634],[9.08296,45.47491],[9.08367,45.47524],[9.08387,45.47415],[9.08717,45.47476],[9.08764,45.47379],[9.08869,45.47397],[9.08908,45.47307],[9.08982,45.47246],[9.09089,45.47216],[9.09106,45.47228],[9.09059,45.47283],[9.09043,45.47328],[9.09117,45.47343],[9.09294,45.47306],[9.09421,45.4737],[9.09276,45.47485],[9.09396,45.47541],[9.09354,45.47589],[9.0978,45.47641],[9.10016,45.47736],[9.10214,45.47829],[9.10291,45.47943],[9.09739,45.48118],[9.09295,45.48223],[9.08909,45.48328],[9.08673,45.48376],[9.08375,45.48485]]]}},{"type":"Feature","properties":{"id":63,"name":"Figino"},"geometry":{"type":"Polygon","coordinates":[[[9.08375,45.48485],[9.08364,45.48765],[9.0851,45.48883],[9.08337,45.49042],[9.08251,45.49158],[9.08059,45.49456],[9.07981,45.49548],[9.07753,45.49476],[9.07704,45.49521],[9.07598,45.4949],[9.07541,45.49601],[9.07463,45.49664],[9.07452,45.49696],[9.07463,45.49781],[9.06674,45.498],[9.0665,45.49063],[9.06667,45.48957],[9.06723,45.48785],[9.06744,45.4874],[9.06854,45.48585],[9.06891,45.48597],[9.06975,45.48574],[9.07213,45.48592],[9.07215,45.48703],[9.0735,45.48711],[9.07387,45.48636],[9.07624,45.48675],[9.07603,45.48772],[9.0778,45.48714],[9.08375,45.48485]]]}},{"type":"Feature","properties":{"id":64,"name":"Trenno"},"geometry":{"type":"Polygon","coordinates":[[[9.10623,45.49016],[9.1053,45.49226],[9.10723,45.49246],[9.10689,45.49338],[9.10657,45.49386],[9.10568,45.49458],[9.10458,45.49516],[9.10215,45.49617],[9.10047,45.49718],[9.09937,45.497],[9.09975,45.49639],[9.09883,45.49622],[9.09672,45.49637],[9.09715,45.49369],[9.09733,45.49374],[9.09739,45.49341],[9.0976,45.49327],[9.09842,45.49317],[9.09861,45.49253],[9.09789,45.49246],[9.09796,45.49119],[9.09959,45.49022],[9.09993,45.48859],[9.09998,45.48789],[9.10146,45.48847],[9.10311,45.48881],[9.10295,45.48939],[9.10623,45.49016]]]}},{"type":"Feature","properties":{"id":65,"name":"Q.re Gallaratese · Q.re San Leonardo · Lampugnano"},"geometry":{"type":"Polygon","coordinates":[[[9.09884,45.50652],[9.09527,45.5074],[9.09415,45.50583],[9.09266,45.50627],[9.09162,45.50708],[9.09123,45.50405],[9.08984,45.50044],[9.09048,45.49977],[9.08957,45.49959],[9.09014,45.49891],[9.08971,45.4987],[9.09095,45.49855],[9.09133,45.49887],[9.09193,45.49832],[9.09411,45.49951],[9.0945,45.49953],[9.09551,45.49701],[9.09634,45.49644],[9.09883,45.49622],[9.09975,45.49639],[9.09937,45.497],[9.10047,45.49718],[9.10215,45.49617],[9.10458,45.49516],[9.10568,45.49458],[9.10657,45.49386],[9.10689,45.49338],[9.10723,45.49246],[9.1053,45.49226],[9.10623,45.49016],[9.10723,45.49038],[9.10662,45.49162],[9.10813,45.49186],[9.10908,45.49027],[9.11112,45.49095],[9.11182,45.49088],[9.11239,45.49071],[9.11257,45.49093],[9.11701,45.48861],[9.11816,45.48789],[9.11852,45.48725],[9.11858,45.48665],[9.11804,45.48486],[9.12461,45.486],[9.1302,45.48464],[9.13021,45.48656],[9.13011,45.48742],[9.12999,45.49274],[9.13002,45.49403],[9.13019,45.4952],[9.1208,45.49894],[9.12009,45.50125],[9.12032,45.50135],[9.11157,45.50339],[9.09884,45.50652]]]}},{"type":"Feature","properties":{"id":66,"name":"QT 8"},"geometry":{"type":"Polygon","coordinates":[[[9.14479,45.48565],[9.14276,45.48725],[9.1404,45.48886],[9.13899,45.48996],[9.13774,45.49119],[9.13624,45.4919],[9.13675,45.49202],[9.13556,45.49279],[9.13019,45.4952],[9.13002,45.49403],[9.12999,45.49274],[9.13011,45.48742],[9.13021,45.48656],[9.1302,45.48464],[9.13946,45.48234],[9.1399,45.48204],[9.14043,45.48143],[9.14075,45.48047],[9.14291,45.47911],[9.14312,45.48246],[9.14228,45.48312],[9.14249,45.48335],[9.14317,45.4833],[9.14338,45.4842],[9.14368,45.48474],[9.14479,45.48565]]]}},{"type":"Feature","properties":{"id":67,"name":"Portello"},"geometry":{"type":"Polygon","coordinates":[[[9.15636,45.48785],[9.15152,45.49007],[9.14479,45.48565],[9.15164,45.48045],[9.16028,45.4803],[9.16349,45.48243],[9.16074,45.48462],[9.15636,45.48785]]]}},{"type":"Feature","properties":{"id":68,"name":"Pagano"},"geometry":{"type":"Polygon","coordinates":[[[9.17174,45.47619],[9.16867,45.47863],[9.16349,45.48243],[9.16028,45.4803],[9.15982,45.47345],[9.15556,45.47356],[9.1552,45.46687],[9.16486,45.46619],[9.16641,45.47149],[9.16617,45.47163],[9.17161,45.47516],[9.17139,45.47573],[9.17174,45.47619]]]}},{"type":"Feature","properties":{"id":69,"name":"Sarpi"},"geometry":{"type":"Polygon","coordinates":[[[9.18225,45.48679],[9.17913,45.48914],[9.17784,45.48975],[9.17682,45.49009],[9.17597,45.49026],[9.17303,45.4906],[9.1742,45.48911],[9.17362,45.48889],[9.17465,45.4874],[9.16411,45.48773],[9.15636,45.48785],[9.16074,45.48462],[9.16349,45.48243],[9.16867,45.47863],[9.17174,45.47619],[9.17246,45.47639],[9.17319,45.47616],[9.17501,45.47734],[9.17648,45.47615],[9.1771,45.47662],[9.17823,45.47705],[9.18123,45.47757],[9.18241,45.48125],[9.18149,45.48252],[9.18225,45.48679]]]}},{"type":"Feature","properties":{"id":70,"name":"Ghisolfa"},"geometry":{"type":"Polygon","coordinates":[[[9.17303,45.4906],[9.17181,45.49086],[9.17041,45.49136],[9.16968,45.49174],[9.16718,45.49349],[9.16568,45.49481],[9.16352,45.49623],[9.16204,45.4969],[9.15152,45.49007],[9.15636,45.48785],[9.16411,45.48773],[9.17465,45.4874],[9.17362,45.48889],[9.1742,45.48911],[9.17303,45.4906]]]}},{"type":"Feature","properties":{"id":71,"name":"Villapizzone · Cagnola · Boldinasco"},"geometry":{"type":"Polygon","coordinates":[[[9.16204,45.4969],[9.15026,45.5023],[9.14922,45.50298],[9.14838,45.50371],[9.14784,45.50432],[9.1475,45.50496],[9.14737,45.50568],[9.14746,45.5065],[9.14779,45.50723],[9.14821,45.50779],[9.1489,45.50843],[9.14688,45.50704],[9.14592,45.50649],[9.14499,45.5061],[9.1438,45.50578],[9.14144,45.50553],[9.14025,45.50559],[9.1346,45.50673],[9.13016,45.50784],[9.13048,45.50632],[9.13067,45.50471],[9.13019,45.4952],[9.13556,45.49279],[9.13675,45.49202],[9.13624,45.4919],[9.13774,45.49119],[9.13899,45.48996],[9.1404,45.48886],[9.14276,45.48725],[9.14479,45.48565],[9.16204,45.4969]]]}},{"type":"Feature","properties":{"id":72,"name":"Maggiore · Musocco · Certosa"},"geometry":{"type":"Polygon","coordinates":[[[9.13016,45.50784],[9.12325,45.50929],[9.12055,45.51026],[9.11888,45.511],[9.11651,45.51178],[9.11709,45.51186],[9.11708,45.51204],[9.11602,45.51217],[9.11368,45.51291],[9.11304,45.51372],[9.11289,45.5153],[9.09516,45.51456],[9.09548,45.51357],[9.09606,45.51286],[9.09651,45.51252],[9.09703,45.51074],[9.09802,45.50867],[9.09884,45.50651],[9.11157,45.50339],[9.12032,45.50135],[9.12009,45.50125],[9.1208,45.49894],[9.13019,45.4952],[9.13067,45.50471],[9.13048,45.50632],[9.13016,45.50784]]]}},{"type":"Feature","properties":{"id":73,"name":"Cascina Merlata"},"geometry":{"type":"Polygon","coordinates":[[[9.09928,45.53128],[9.09897,45.53208],[9.0954,45.52926],[9.09326,45.52939],[9.09291,45.52871],[9.0941,45.52824],[9.093,45.52738],[9.09277,45.52642],[9.09312,45.52586],[9.09367,45.52539],[9.09427,45.52508],[9.09451,45.52508],[9.09642,45.52395],[9.09435,45.5228],[9.09538,45.52174],[9.09272,45.52042],[9.09343,45.51959],[9.09312,45.51967],[9.09298,45.51946],[9.09317,45.51934],[9.09446,45.51641],[9.0948,45.51602],[9.09516,45.51456],[9.11886,45.51555],[9.12092,45.51571],[9.11477,45.51867],[9.10761,45.52261],[9.10732,45.52258],[9.10666,45.52306],[9.10293,45.52101],[9.10286,45.52137],[9.10309,45.52162],[9.10283,45.52271],[9.10181,45.5247],[9.10131,45.52506],[9.10086,45.52594],[9.10058,45.52617],[9.10025,45.52619],[9.09962,45.52613],[9.09891,45.52589],[9.09791,45.52574],[9.09679,45.52679],[9.09706,45.52692],[9.09757,45.5268],[9.09855,45.52718],[9.09661,45.52909],[9.09754,45.5292],[9.09801,45.52907],[9.09852,45.5299],[9.1008,45.52909],[9.10105,45.52924],[9.10048,45.52995],[9.10159,45.53093],[9.10107,45.53175],[9.09932,45.53118],[9.09928,45.53128]]]}},{"type":"Feature","properties":{"id":74,"name":"Roserio"},"geometry":{"type":"Polygon","coordinates":[[[9.13006,45.52294],[9.12993,45.52324],[9.12995,45.52371],[9.12984,45.52397],[9.12952,45.52434],[9.12867,45.52501],[9.12831,45.52487],[9.12845,45.52408],[9.12884,45.52354],[9.12895,45.52291],[9.12392,45.52279],[9.12401,45.52267],[9.12402,45.52204],[9.12354,45.52126],[9.12356,45.52099],[9.12377,45.52064],[9.12254,45.52048],[9.12245,45.52087],[9.12036,45.52065],[9.12022,45.52154],[9.1198,45.52181],[9.11769,45.52164],[9.11791,45.52008],[9.11764,45.52001],[9.11844,45.51899],[9.1183,45.51897],[9.11793,45.51933],[9.11634,45.52019],[9.11287,45.5208],[9.11091,45.5223],[9.11049,45.52276],[9.10963,45.52308],[9.10896,45.5241],[9.10866,45.52403],[9.109,45.52324],[9.10873,45.52323],[9.1089,45.52278],[9.10761,45.52261],[9.11477,45.51867],[9.12092,45.51571],[9.12163,45.51589],[9.12311,45.51652],[9.12666,45.51875],[9.13438,45.5225],[9.1343,45.52277],[9.13536,45.52294],[9.13514,45.5236],[9.13589,45.52372],[9.13574,45.52429],[9.13236,45.52349],[9.1318,45.52324],[9.13006,45.52294]]]}},{"type":"Feature","properties":{"id":75,"name":"Stephenson"},"geometry":{"type":"Polygon","coordinates":[[[9.13009,45.5082],[9.12973,45.50939],[9.12933,45.50998],[9.12879,45.51051],[9.12591,45.51242],[9.12352,45.51414],[9.12092,45.51571],[9.11289,45.5153],[9.11304,45.51372],[9.11368,45.51291],[9.11602,45.51217],[9.11708,45.51204],[9.11709,45.51186],[9.11651,45.51178],[9.11888,45.511],[9.12055,45.51026],[9.12325,45.50929],[9.13016,45.50784],[9.13009,45.5082]]]}},{"type":"Feature","properties":{"id":76,"name":"Quarto Oggiaro · Vialba · Musocco"},"geometry":{"type":"Polygon","coordinates":[[[9.13481,45.52095],[9.13438,45.5225],[9.12666,45.51875],[9.12311,45.51652],[9.12163,45.51589],[9.12092,45.51571],[9.12352,45.51414],[9.12591,45.51242],[9.12879,45.51051],[9.12933,45.50998],[9.12973,45.50939],[9.13016,45.50784],[9.1346,45.50673],[9.14025,45.50559],[9.14242,45.50558],[9.1438,45.50578],[9.14499,45.5061],[9.14592,45.50649],[9.14974,45.50898],[9.15065,45.50946],[9.15227,45.50997],[9.1533,45.51012],[9.14985,45.51393],[9.14306,45.52179],[9.14294,45.52177],[9.14289,45.52206],[9.14136,45.5219],[9.14169,45.52057],[9.13697,45.51998],[9.13676,45.52111],[9.13481,45.52095]]]}},{"type":"Feature","properties":{"id":77,"name":"Bovisa"},"geometry":{"type":"Polygon","coordinates":[[[9.15849,45.50959],[9.1546,45.51015],[9.1533,45.51012],[9.15144,45.50976],[9.14974,45.50898],[9.1489,45.50843],[9.14821,45.50779],[9.14779,45.50723],[9.14746,45.5065],[9.14737,45.50568],[9.1475,45.50496],[9.14784,45.50432],[9.14838,45.50371],[9.14922,45.50298],[9.15026,45.5023],[9.16204,45.4969],[9.16409,45.49824],[9.16544,45.4985],[9.16659,45.49838],[9.17053,45.49655],[9.17234,45.49665],[9.17116,45.50102],[9.17071,45.50208],[9.17023,45.50289],[9.16901,45.50446],[9.16937,45.50458],[9.16767,45.5077],[9.16776,45.5082],[9.15849,45.50959]]]}},{"type":"Feature","properties":{"id":78,"name":"Farini"},"geometry":{"type":"Polygon","coordinates":[[[9.17234,45.49665],[9.17053,45.49655],[9.16659,45.49838],[9.16544,45.4985],[9.16409,45.49824],[9.16204,45.4969],[9.16352,45.49623],[9.16568,45.49481],[9.16718,45.49349],[9.16836,45.49261],[9.17041,45.49136],[9.17181,45.49086],[9.17303,45.4906],[9.17597,45.49026],[9.17682,45.49009],[9.17784,45.48975],[9.17913,45.48914],[9.18225,45.48679],[9.18245,45.48834],[9.18113,45.49041],[9.18415,45.49737],[9.17234,45.49665]]]}},{"type":"Feature","properties":{"id":79,"name":"Dergano"},"geometry":{"type":"Polygon","coordinates":[[[9.18378,45.50571],[9.16776,45.5082],[9.16764,45.50788],[9.16767,45.5077],[9.16937,45.50458],[9.16901,45.50446],[9.17023,45.50289],[9.17071,45.50208],[9.17116,45.50102],[9.17234,45.49665],[9.1866,45.49752],[9.18823,45.50144],[9.18378,45.50571]]]}},{"type":"Feature","properties":{"id":80,"name":"Affori"},"geometry":{"type":"Polygon","coordinates":[[[9.17767,45.51899],[9.17683,45.51987],[9.17352,45.5221],[9.16951,45.52514],[9.16617,45.519],[9.1592,45.51091],[9.15849,45.50959],[9.18378,45.50571],[9.18161,45.50773],[9.18116,45.50831],[9.1809,45.50894],[9.17868,45.51648],[9.17796,45.51848],[9.17767,45.51899]]]}},{"type":"Feature","properties":{"id":81,"name":"Bovisasca"},"geometry":{"type":"Polygon","coordinates":[[[9.16803,45.52234],[9.16628,45.52402],[9.15134,45.52116],[9.15097,45.52116],[9.1516,45.52019],[9.15348,45.51907],[9.15387,45.51859],[9.15147,45.51806],[9.15127,45.51863],[9.14978,45.51836],[9.14961,45.51882],[9.1483,45.5186],[9.14767,45.52019],[9.14829,45.5203],[9.14813,45.52081],[9.14883,45.52087],[9.14851,45.52187],[9.14555,45.52145],[9.14521,45.5228],[9.14394,45.52266],[9.1441,45.52161],[9.14364,45.52152],[9.14356,45.52187],[9.14306,45.52179],[9.14985,45.51393],[9.1533,45.51012],[9.1546,45.51015],[9.15849,45.50959],[9.1592,45.51091],[9.16617,45.519],[9.16803,45.52234]]]}},{"type":"Feature","properties":{"id":82,"name":"Comasina"},"geometry":{"type":"Polygon","coordinates":[[[9.16951,45.52514],[9.16522,45.52837],[9.1642,45.52778],[9.16379,45.52764],[9.16189,45.53182],[9.16117,45.53377],[9.1585,45.53345],[9.15854,45.5327],[9.15745,45.53239],[9.15779,45.53114],[9.15678,45.531],[9.15699,45.53014],[9.15658,45.53009],[9.1569,45.52899],[9.15565,45.52881],[9.1564,45.52642],[9.15496,45.52623],[9.15509,45.52572],[9.15361,45.52555],[9.15353,45.52584],[9.15254,45.5257],[9.15262,45.52543],[9.15235,45.5254],[9.15258,45.52439],[9.15155,45.52425],[9.15186,45.52314],[9.15102,45.52302],[9.15152,45.5212],[9.16628,45.52402],[9.16803,45.52234],[9.16951,45.52514]]]}},{"type":"Feature","properties":{"id":83,"name":"Bruzzano"},"geometry":{"type":"Polygon","coordinates":[[[9.17808,45.53479],[9.17764,45.53549],[9.17573,45.53537],[9.17567,45.53594],[9.17403,45.53591],[9.17415,45.53558],[9.1742,45.53499],[9.17195,45.53492],[9.17191,45.53515],[9.17088,45.53508],[9.1708,45.53548],[9.16878,45.53531],[9.16864,45.53581],[9.1672,45.53563],[9.16715,45.53594],[9.16557,45.53579],[9.16566,45.53531],[9.16427,45.53515],[9.1643,45.53499],[9.1609,45.53462],[9.16189,45.53182],[9.16379,45.52764],[9.1642,45.52778],[9.16522,45.52837],[9.17352,45.5221],[9.17683,45.51987],[9.17767,45.51899],[9.17803,45.51908],[9.17776,45.52072],[9.17825,45.52133],[9.18073,45.52146],[9.18047,45.52238],[9.17997,45.52309],[9.17939,45.52456],[9.18062,45.52476],[9.18093,45.52491],[9.18109,45.52512],[9.18113,45.52538],[9.18082,45.52708],[9.18087,45.52774],[9.17944,45.52827],[9.17829,45.52821],[9.17896,45.53001],[9.17894,45.53024],[9.1784,45.53155],[9.17808,45.53479]]]}},{"type":"Feature","properties":{"id":84,"name":"Parco Nord"},"geometry":{"type":"Polygon","coordinates":[[[9.2004,45.52848],[9.19916,45.52828],[9.19929,45.5281],[9.19889,45.52799],[9.19913,45.52753],[9.19774,45.52727],[9.19749,45.528],[9.19712,45.52795],[9.19657,45.52948],[9.19547,45.52935],[9.19564,45.52846],[9.19584,45.52848],[9.19607,45.52768],[9.19261,45.52723],[9.19268,45.528],[9.19182,45.52795],[9.1905,45.52778],[9.1905,45.52768],[9.19037,45.52763],[9.19039,45.52722],[9.189,45.52708],[9.1877,45.52835],[9.18665,45.52957],[9.18671,45.5296],[9.18653,45.53005],[9.18666,45.53006],[9.18658,45.53077],[9.18491,45.53057],[9.1847,45.53132],[9.18461,45.53259],[9.18432,45.53311],[9.18429,45.53336],[9.18329,45.53319],[9.18299,45.53432],[9.18196,45.53417],[9.18187,45.53434],[9.18026,45.53413],[9.18006,45.53512],[9.17913,45.53499],[9.17905,45.53528],[9.17808,45.53479],[9.1784,45.53155],[9.17894,45.53024],[9.17896,45.53001],[9.17829,45.52821],[9.17944,45.52827],[9.18087,45.52774],[9.18082,45.52708],[9.18113,45.52538],[9.18109,45.52512],[9.18093,45.52491],[9.18062,45.52476],[9.17939,45.52456],[9.17997,45.52309],[9.18047,45.52238],[9.18073,45.52146],[9.17825,45.52133],[9.17776,45.52072],[9.17803,45.51908],[9.17767,45.51899],[9.17796,45.51848],[9.17868,45.51648],[9.1809,45.50894],[9.18116,45.50831],[9.18161,45.50773],[9.18378,45.50571],[9.18489,45.50554],[9.18471,45.50739],[9.1821,45.50803],[9.18184,45.50836],[9.18251,45.51241],[9.18416,45.5131],[9.18469,45.51297],[9.18455,45.51379],[9.18369,45.51464],[9.18292,45.51579],[9.18273,45.51636],[9.18373,45.51657],[9.18543,45.51738],[9.18591,45.51748],[9.18535,45.51892],[9.18504,45.5193],[9.18444,45.52058],[9.18482,45.52066],[9.18393,45.52274],[9.18494,45.5227],[9.18722,45.5233],[9.1872,45.5235],[9.18911,45.5239],[9.18863,45.52548],[9.18976,45.52631],[9.19708,45.52632],[9.20021,45.52547],[9.20067,45.52544],[9.20166,45.52559],[9.20222,45.52581],[9.2004,45.52848]]]}},{"type":"Feature","properties":{"id":85,"name":"Parco delle Abbazie"},"geometry":{"type":"Polygon","coordinates":[[[9.21711,45.43187],[9.21531,45.43232],[9.21485,45.4335],[9.2143,45.43347],[9.21178,45.43271],[9.20856,45.43209],[9.20897,45.43148],[9.20954,45.43122],[9.21039,45.42912],[9.21099,45.42714],[9.21145,45.42642],[9.21243,45.42524],[9.21208,45.42504],[9.20944,45.42473],[9.21012,45.42347],[9.20761,45.42295],[9.20743,45.42324],[9.20692,45.42314],[9.20687,45.42331],[9.20656,45.4233],[9.20516,45.42203],[9.20599,45.41964],[9.20473,45.41935],[9.20375,45.42024],[9.1991,45.42243],[9.19848,45.4229],[9.19774,45.42382],[9.19599,45.42792],[9.19373,45.42783],[9.19385,45.42556],[9.19106,45.42546],[9.1908,45.42526],[9.19009,45.42576],[9.18917,45.42521],[9.18791,45.42633],[9.18584,45.4252],[9.18423,45.42648],[9.18341,45.42609],[9.18258,45.42699],[9.18081,45.42588],[9.18048,45.42556],[9.18069,45.42537],[9.18068,45.42146],[9.18041,45.42107],[9.18227,45.42014],[9.18169,45.41834],[9.18192,45.41816],[9.18167,45.41796],[9.18183,45.41714],[9.18194,45.41561],[9.18217,45.41522],[9.18196,45.41473],[9.18258,45.41076],[9.18351,45.40831],[9.18207,45.4082],[9.18226,45.40728],[9.18005,45.40708],[9.18003,45.40554],[9.17621,45.40603],[9.17617,45.40657],[9.17498,45.40666],[9.17529,45.40541],[9.17526,45.40473],[9.17445,45.40277],[9.17399,45.40077],[9.1736,45.40077],[9.17288,45.39459],[9.1794,45.39327],[9.18248,45.3919],[9.18212,45.39073],[9.18256,45.39053],[9.18404,45.39038],[9.18561,45.38987],[9.18558,45.38994],[9.18606,45.39021],[9.1864,45.39147],[9.18679,45.3912],[9.18688,45.39099],[9.18702,45.39095],[9.18701,45.39114],[9.18728,45.39104],[9.18737,45.39117],[9.18778,45.3913],[9.18949,45.39229],[9.18995,45.39266],[9.19011,45.39264],[9.1902,45.39243],[9.19046,45.39279],[9.19057,45.39257],[9.19101,45.39256],[9.19109,45.39244],[9.19111,45.39225],[9.19095,45.39192],[9.19123,45.39148],[9.19125,45.3909],[9.1914,45.39079],[9.19107,45.39047],[9.19091,45.39046],[9.19063,45.39011],[9.19086,45.38978],[9.19096,45.38898],[9.19081,45.38877],[9.19097,45.38848],[9.1917,45.38889],[9.1916,45.38843],[9.19195,45.388],[9.19242,45.38788],[9.19242,45.38735],[9.19264,45.38672],[9.19552,45.38725],[9.19673,45.38767],[9.19694,45.38766],[9.19854,45.38895],[9.19876,45.38926],[9.20004,45.38954],[9.2009,45.39079],[9.20179,45.39158],[9.20167,45.39249],[9.20123,45.39318],[9.20025,45.39428],[9.19968,45.39469],[9.19987,45.39564],[9.20043,45.39727],[9.20034,45.39752],[9.20126,45.39766],[9.20158,45.3975],[9.20181,45.39759],[9.20379,45.39755],[9.20387,45.39881],[9.20428,45.39966],[9.20448,45.39976],[9.2044,45.40047],[9.19993,45.39982],[9.19981,45.4001],[9.19882,45.39988],[9.19875,45.40167],[9.20185,45.40159],[9.20041,45.40408],[9.20028,45.40492],[9.20044,45.40563],[9.20032,45.41131],[9.20464,45.41306],[9.20486,45.41279],[9.20639,45.41309],[9.20882,45.40345],[9.20705,45.40318],[9.20636,45.40299],[9.20479,45.4022],[9.20547,45.40143],[9.20599,45.40059],[9.20595,45.39974],[9.20619,45.39953],[9.20965,45.40018],[9.21053,45.39674],[9.21502,45.39733],[9.21519,45.39678],[9.21882,45.39751],[9.21838,45.39796],[9.21827,45.39821],[9.21692,45.39959],[9.21678,45.39993],[9.21683,45.40037],[9.21645,45.40154],[9.21648,45.40247],[9.21653,45.40324],[9.21693,45.40409],[9.21694,45.4046],[9.21676,45.40459],[9.21678,45.40468],[9.2184,45.40557],[9.21878,45.40569],[9.21847,45.40628],[9.21857,45.40631],[9.21802,45.40718],[9.21936,45.40786],[9.22303,45.40955],[9.22413,45.40904],[9.22514,45.40834],[9.22587,45.40766],[9.22649,45.40732],[9.22788,45.40794],[9.23102,45.408],[9.23146,45.40785],[9.23365,45.40905],[9.23533,45.40932],[9.23626,45.40963],[9.23625,45.40946],[9.23644,45.40943],[9.23659,45.40956],[9.23734,45.40986],[9.23853,45.40934],[9.2394,45.40861],[9.24014,45.40843],[9.2403,45.40827],[9.24089,45.40871],[9.24265,45.40923],[9.24353,45.41004],[9.24259,45.41086],[9.24396,45.4129],[9.24571,45.41238],[9.24624,45.41253],[9.24682,45.41242],[9.25064,45.41454],[9.24817,45.41556],[9.24663,45.41659],[9.24507,45.41742],[9.24303,45.41508],[9.24133,45.4146],[9.2403,45.41414],[9.23936,45.41443],[9.23969,45.41486],[9.23929,45.41596],[9.23892,45.41621],[9.23897,45.41629],[9.23835,45.41687],[9.23816,45.4169],[9.23732,45.41349],[9.23378,45.41511],[9.23491,45.41601],[9.23714,45.41818],[9.23855,45.41969],[9.23881,45.42011],[9.23894,45.42015],[9.23463,45.42261],[9.22886,45.4274],[9.22787,45.4285],[9.22651,45.4298],[9.22611,45.43032],[9.22413,45.43169],[9.2234,45.43114],[9.22433,45.4306],[9.22217,45.42984],[9.22195,45.43009],[9.22117,45.43022],[9.21947,45.43172],[9.21866,45.43231],[9.21733,45.4316],[9.21711,45.43187]],[[9.17933,45.40137],[9.1791,45.40145],[9.17811,45.40233],[9.17781,45.40281],[9.18177,45.40391],[9.18306,45.40365],[9.18312,45.40313],[9.18347,45.40245],[9.18338,45.40197],[9.18364,45.40122],[9.18499,45.39928],[9.18561,45.39765],[9.18302,45.39776],[9.18268,45.39791],[9.183,45.39869],[9.18285,45.3998],[9.18274,45.40002],[9.18107,45.39975],[9.18104,45.40004],[9.18048,45.3999],[9.17933,45.40137]]]}},{"type":"Feature","properties":{"id":86,"name":"Parco dei Navigli"},"geometry":{"type":"Polygon","coordinates":[[[9.13886,45.42855],[9.13698,45.43001],[9.13702,45.4302],[9.13566,45.4321],[9.13395,45.43284],[9.13146,45.43431],[9.13109,45.4346],[9.13014,45.43597],[9.12974,45.4362],[9.12679,45.43717],[9.12643,45.43737],[9.12348,45.43555],[9.12379,45.43485],[9.1257,45.43143],[9.12563,45.43102],[9.12668,45.43008],[9.12677,45.42812],[9.12762,45.42651],[9.12836,45.42577],[9.13147,45.42408],[9.13199,45.42362],[9.13221,45.42141],[9.13181,45.42115],[9.13186,45.42076],[9.13138,45.42074],[9.1311,45.42083],[9.1311,45.42117],[9.13098,45.42149],[9.13066,45.42163],[9.13087,45.42061],[9.13049,45.42056],[9.13064,45.41937],[9.13041,45.41801],[9.13052,45.41731],[9.13023,45.41723],[9.13152,45.41594],[9.13196,45.4157],[9.13238,45.41529],[9.1329,45.41453],[9.13306,45.4145],[9.13331,45.41418],[9.13609,45.4148],[9.13699,45.41535],[9.13792,45.41535],[9.13609,45.41751],[9.1384,45.41789],[9.13915,45.41785],[9.13933,45.41725],[9.13936,45.41653],[9.14008,45.41712],[9.14131,45.41745],[9.14143,45.41722],[9.1434,45.41783],[9.14483,45.4184],[9.14615,45.41682],[9.14717,45.416],[9.14733,45.41543],[9.14816,45.41389],[9.14903,45.4142],[9.14977,45.41419],[9.15031,45.41439],[9.15063,45.41471],[9.14962,45.41528],[9.15196,45.41635],[9.15254,45.41522],[9.15403,45.41558],[9.15456,45.41614],[9.15506,45.41469],[9.15528,45.41443],[9.15552,45.41372],[9.15553,45.4126],[9.15735,45.41237],[9.15846,45.40927],[9.15849,45.4082],[9.15887,45.40808],[9.16252,45.41406],[9.16691,45.42164],[9.16532,45.42197],[9.1652,45.42033],[9.16283,45.42031],[9.1598,45.41966],[9.15973,45.41953],[9.16018,45.41866],[9.15905,45.41836],[9.1591,45.41725],[9.15877,45.41719],[9.15757,45.41749],[9.15712,45.41709],[9.15579,45.41742],[9.15445,45.41758],[9.15433,45.41743],[9.15375,45.41749],[9.1533,45.41696],[9.15235,45.41655],[9.15114,45.41773],[9.15209,45.41845],[9.15109,45.41906],[9.15053,45.41917],[9.15039,45.41938],[9.14979,45.41959],[9.14781,45.42089],[9.14905,45.42164],[9.15025,45.42357],[9.15015,45.42396],[9.15102,45.42447],[9.15143,45.42413],[9.15342,45.4252],[9.15401,45.42542],[9.1528,45.42592],[9.15081,45.42783],[9.15111,45.4283],[9.15001,45.4288],[9.14988,45.42894],[9.14992,45.42923],[9.14071,45.43099],[9.13901,45.42836],[9.13886,45.42855]]]}},{"type":"Feature","properties":{"id":87,"name":"Assiano"},"geometry":{"type":"Polygon","coordinates":[[[9.04687,45.46276],[9.04617,45.46362],[9.04493,45.46588],[9.04472,45.46612],[9.043,45.4655],[9.04337,45.46385],[9.04286,45.46374],[9.04472,45.45996],[9.04534,45.45889],[9.04644,45.45928],[9.04951,45.45466],[9.04824,45.45479],[9.0499,45.45233],[9.04938,45.4522],[9.05003,45.45116],[9.04894,45.45093],[9.04381,45.44886],[9.04386,45.44867],[9.04105,45.44775],[9.0406,45.44752],[9.04133,45.44647],[9.04169,45.44634],[9.04189,45.44638],[9.05407,45.44485],[9.05494,45.44246],[9.05421,45.43985],[9.05516,45.44],[9.0562,45.43805],[9.05751,45.43834],[9.05777,45.43831],[9.05904,45.43721],[9.06035,45.43561],[9.06085,45.43487],[9.06103,45.43486],[9.06096,45.43435],[9.06323,45.43543],[9.06415,45.43445],[9.06374,45.43409],[9.06374,45.43395],[9.06459,45.43325],[9.06514,45.4336],[9.06558,45.43411],[9.06618,45.43581],[9.06924,45.43363],[9.07057,45.43453],[9.07275,45.43399],[9.07282,45.43385],[9.07334,45.43437],[9.07433,45.43484],[9.07518,45.43538],[9.07552,45.43572],[9.07612,45.43604],[9.07682,45.4368],[9.07675,45.43685],[9.07697,45.4371],[9.07805,45.43771],[9.07892,45.43808],[9.07929,45.43845],[9.07699,45.44062],[9.07536,45.44255],[9.07807,45.44371],[9.0785,45.44404],[9.0785,45.44426],[9.07776,45.44455],[9.07842,45.44479],[9.0785,45.44498],[9.07774,45.44514],[9.07795,45.44529],[9.07803,45.44551],[9.07782,45.44581],[9.07762,45.4459],[9.07772,45.44601],[9.07777,45.4465],[9.07683,45.44695],[9.07684,45.44719],[9.07663,45.44745],[9.07668,45.44773],[9.07641,45.44801],[9.07641,45.44824],[9.07745,45.44925],[9.0779,45.44932],[9.07785,45.44945],[9.07669,45.44936],[9.07547,45.44952],[9.06841,45.44753],[9.06814,45.44799],[9.06784,45.44815],[9.06653,45.44973],[9.06648,45.44992],[9.06661,45.45005],[9.06742,45.45039],[9.06589,45.45245],[9.07195,45.45416],[9.07319,45.45473],[9.0741,45.45439],[9.07456,45.45405],[9.07663,45.45521],[9.07688,45.45594],[9.07736,45.45589],[9.07751,45.45736],[9.07256,45.457],[9.07239,45.45814],[9.072,45.45848],[9.07172,45.45849],[9.07164,45.45865],[9.0705,45.45864],[9.07001,45.45891],[9.06974,45.45933],[9.06969,45.45984],[9.06983,45.46014],[9.06969,45.46099],[9.0693,45.46127],[9.06883,45.46138],[9.06799,45.46184],[9.0674,45.46191],[9.06728,45.46206],[9.06735,45.46235],[9.06715,45.46254],[9.06722,45.4628],[9.06672,45.463],[9.06647,45.46375],[9.06156,45.46279],[9.05801,45.46274],[9.05854,45.46215],[9.05522,45.46132],[9.0548,45.46133],[9.05467,45.46156],[9.05366,45.46131],[9.05236,45.462],[9.05158,45.46187],[9.04983,45.46407],[9.04687,45.46276]]]}},{"type":"Feature","properties":{"id":88,"name":"Parco Bosco in Città"},"geometry":{"type":"Polygon","coordinates":[[[9.07309,45.50604],[9.07272,45.50608],[9.07145,45.50581],[9.06988,45.50574],[9.06896,45.50552],[9.06824,45.50512],[9.0673,45.50493],[9.06587,45.50517],[9.06483,45.50458],[9.06564,45.50367],[9.06191,45.5023],[9.06023,45.50458],[9.0598,45.50432],[9.0596,45.50447],[9.05927,45.50426],[9.05911,45.50446],[9.05833,45.50448],[9.0578,45.50489],[9.05735,45.50511],[9.05719,45.50513],[9.057,45.50502],[9.05668,45.50544],[9.05388,45.50487],[9.05442,45.50399],[9.05372,45.50375],[9.05535,45.50081],[9.05607,45.49924],[9.05655,45.49773],[9.05818,45.49774],[9.05864,45.49624],[9.05865,45.49594],[9.05912,45.49492],[9.05941,45.49464],[9.05998,45.49425],[9.06144,45.4948],[9.0622,45.49426],[9.06282,45.49353],[9.06368,45.49279],[9.06391,45.49195],[9.0625,45.49188],[9.06211,45.49214],[9.06171,45.49185],[9.06094,45.49156],[9.06138,45.49089],[9.06151,45.48996],[9.06148,45.48904],[9.06417,45.48846],[9.06419,45.48854],[9.06368,45.48901],[9.06302,45.48936],[9.06285,45.4897],[9.06286,45.49004],[9.06266,45.49042],[9.06396,45.49039],[9.06396,45.49019],[9.06504,45.49017],[9.06494,45.48848],[9.06674,45.48856],[9.06734,45.48675],[9.06661,45.48639],[9.06572,45.48621],[9.06613,45.48507],[9.06598,45.48445],[9.06596,45.48366],[9.06565,45.48335],[9.06567,45.48313],[9.06643,45.48255],[9.06919,45.48107],[9.06982,45.4806],[9.06993,45.48067],[9.07072,45.48002],[9.07199,45.47876],[9.07265,45.47835],[9.07317,45.47824],[9.07339,45.47794],[9.07389,45.47785],[9.0743,45.47757],[9.07457,45.47757],[9.07479,45.47745],[9.07493,45.47762],[9.07525,45.47746],[9.07489,45.47696],[9.07548,45.47664],[9.07533,45.47614],[9.07556,45.47601],[9.07557,45.47584],[9.07586,45.4754],[9.07555,45.4751],[9.07555,45.475],[9.07473,45.47433],[9.07779,45.47211],[9.07771,45.47198],[9.07712,45.47207],[9.07659,45.47202],[9.07603,45.47165],[9.07487,45.47057],[9.07466,45.47048],[9.07414,45.47033],[9.07326,45.47027],[9.07293,45.47033],[9.0735,45.46877],[9.07438,45.46698],[9.0738,45.46685],[9.07408,45.46667],[9.07478,45.4647],[9.07545,45.4638],[9.07567,45.46358],[9.07613,45.46365],[9.07615,45.46437],[9.07647,45.46566],[9.07704,45.46552],[9.07716,45.46591],[9.07736,45.46597],[9.08134,45.4669],[9.08161,45.46691],[9.08219,45.46674],[9.0849,45.46757],[9.0845,45.46822],[9.08415,45.46848],[9.08342,45.46891],[9.08202,45.46945],[9.08138,45.46984],[9.08587,45.47025],[9.09215,45.47122],[9.09278,45.47083],[9.09315,45.46938],[9.09393,45.46802],[9.09422,45.46807],[9.09593,45.46541],[9.09617,45.46547],[9.09681,45.4648],[9.09753,45.46286],[9.09772,45.46086],[9.09924,45.46074],[9.10139,45.46105],[9.10223,45.46267],[9.10298,45.46275],[9.10343,45.46178],[9.10608,45.46212],[9.10635,45.46175],[9.10686,45.46143],[9.10754,45.46149],[9.10714,45.46297],[9.11007,45.46352],[9.10937,45.46576],[9.10952,45.46675],[9.10962,45.4669],[9.10748,45.46683],[9.10599,45.46666],[9.10362,45.4666],[9.10292,45.46918],[9.10162,45.47049],[9.09846,45.47313],[9.09997,45.47381],[9.10112,45.47414],[9.10273,45.4742],[9.10016,45.47736],[9.0978,45.47641],[9.09354,45.47589],[9.09396,45.47541],[9.09276,45.47485],[9.09421,45.4737],[9.09294,45.47306],[9.09117,45.47343],[9.09043,45.47328],[9.09059,45.47283],[9.09106,45.47228],[9.09089,45.47216],[9.08982,45.47246],[9.08908,45.47307],[9.08869,45.47397],[9.08764,45.47379],[9.08717,45.47476],[9.08387,45.47415],[9.08367,45.47524],[9.08296,45.47491],[9.08367,45.47634],[9.0811,45.47859],[9.08059,45.47845],[9.08052,45.47829],[9.07959,45.47793],[9.07835,45.47812],[9.07821,45.47885],[9.07538,45.47861],[9.07267,45.48142],[9.07507,45.48208],[9.07775,45.4825],[9.07698,45.48492],[9.07879,45.4852],[9.07893,45.48473],[9.08029,45.48489],[9.08026,45.48509],[9.0828,45.48521],[9.0778,45.48714],[9.07603,45.48772],[9.07624,45.48675],[9.07387,45.48636],[9.0735,45.48711],[9.07215,45.48703],[9.07213,45.48592],[9.06975,45.48574],[9.06891,45.48597],[9.06854,45.48585],[9.06744,45.4874],[9.06723,45.48785],[9.06667,45.48957],[9.0665,45.49063],[9.06674,45.498],[9.07463,45.49781],[9.07452,45.49696],[9.07463,45.49664],[9.07541,45.49601],[9.07598,45.4949],[9.07704,45.49521],[9.07753,45.49476],[9.07981,45.49548],[9.08059,45.49456],[9.08251,45.49158],[9.08337,45.49042],[9.0851,45.48883],[9.08364,45.48765],[9.08375,45.48485],[9.08673,45.48376],[9.08909,45.48328],[9.09295,45.48223],[9.09739,45.48118],[9.10172,45.47984],[9.10696,45.47788],[9.11143,45.4764],[9.10963,45.48432],[9.10881,45.4886],[9.10966,45.48909],[9.10908,45.49027],[9.10813,45.49186],[9.10662,45.49162],[9.10723,45.49038],[9.10295,45.48939],[9.10311,45.48881],[9.10146,45.48847],[9.09998,45.48789],[9.09993,45.48859],[9.09959,45.49022],[9.09796,45.49119],[9.09789,45.49246],[9.09861,45.49253],[9.09842,45.49317],[9.0976,45.49327],[9.09739,45.49341],[9.09733,45.49374],[9.09715,45.49369],[9.09672,45.49637],[9.09634,45.49644],[9.09551,45.49701],[9.0945,45.49953],[9.09411,45.49951],[9.09193,45.49832],[9.09133,45.49887],[9.09095,45.49855],[9.08971,45.4987],[9.08786,45.49795],[9.08778,45.4978],[9.08724,45.49804],[9.08684,45.49782],[9.08603,45.49882],[9.08379,45.49805],[9.08356,45.49741],[9.08257,45.49773],[9.08229,45.49769],[9.08157,45.49782],[9.0815,45.49806],[9.08126,45.49815],[9.08074,45.49793],[9.08081,45.49781],[9.07866,45.49703],[9.07746,45.49843],[9.07664,45.49797],[9.07509,45.49794],[9.07461,45.49806],[9.07511,45.4986],[9.07516,45.49882],[9.07503,45.49935],[9.07202,45.50528],[9.07336,45.50553],[9.07331,45.50579],[9.07309,45.50604]]]}}]}